{"type": "FeatureCollection", "features": [{"type": "Feature", "properties": {"kind": "stage", "color": "#ffffff", "label": "Stage 1 \u00b7 Mallorca lap"}, "geometry": {"type": "Point", "coordinates": [2.34473, 39.58717]}}, {"type": "Feature", "properties": {"kind": "stage", "color": "#ffffff", "label": "Stage 2 \u00b7 Mallorca lap"}, "geometry": {"type": "Point", "coordinates": [2.45837, 39.50206]}}, {"type": "Feature", "properties": {"kind": "stage", "color": "#ffffff", "label": "Stage 3 \u00b7 Mallorca lap"}, "geometry": {"type": "Point", "coordinates": [2.63679, 39.54978]}}, {"type": "Feature", "properties": {"kind": "stage", "color": "#ffffff", "label": "Stage 4 \u00b7 Mallorca lap"}, "geometry": {"type": "Point", "coordinates": [2.74349, 39.44656]}}, {"type": "Feature", "properties": {"kind": "stage", "color": "#ffffff", "label": "Stage 5 \u00b7 Mallorca lap"}, "geometry": {"type": "Point", "coordinates": [2.98168, 39.34439]}}, {"type": "Feature", "properties": {"kind": "stage", "color": "#ffffff", "label": "Stage 6 \u00b7 Mallorca lap"}, "geometry": {"type": "Point", "coordinates": [3.19213, 39.34584]}}, {"type": "Feature", "properties": {"kind": "stage", "color": "#ffffff", "label": "Stage 7 \u00b7 Mallorca lap"}, "geometry": {"type": "Point", "coordinates": [3.28812, 39.48102]}}, {"type": "Feature", "properties": {"kind": "stage", "color": "#ffffff", "label": "Stage 8 \u00b7 Mallorca lap"}, "geometry": {"type": "Point", "coordinates": [3.44066, 39.65505]}}, {"type": "Feature", "properties": {"kind": "stage", "color": "#ffffff", "label": "Stage 9 \u00b7 Mallorca lap"}, "geometry": {"type": "Point", "coordinates": [3.33615, 39.77049]}}, {"type": "Feature", "properties": {"kind": "stage", "color": "#ffffff", "label": "Stage 10 \u00b7 Mallorca lap"}, "geometry": {"type": "Point", "coordinates": [3.15705, 39.83619]}}, {"type": "Feature", "properties": {"kind": "stage", "color": "#ffffff", "label": "Stage 11 \u00b7 Mallorca lap"}, "geometry": {"type": "Point", "coordinates": [3.11012, 39.90903]}}, {"type": "Feature", "properties": {"kind": "stage", "color": "#ffffff", "label": "Stage 12 \u00b7 Mallorca lap"}, "geometry": {"type": "Point", "coordinates": [3.06032, 39.91953]}}, {"type": "Feature", "properties": {"kind": "stage", "color": "#ffffff", "label": "Stage 13 \u00b7 Mallorca lap"}, "geometry": {"type": "Point", "coordinates": [2.81405, 39.85757]}}, {"type": "Feature", "properties": {"kind": "stage", "color": "#ffffff", "label": "Stage 14 \u00b7 Mallorca lap"}, "geometry": {"type": "Point", "coordinates": [2.61248, 39.73904]}}, {"type": "Feature", "properties": {"kind": "stage", "color": "#ffffff", "label": "Stage 1 \u00b7 Menorca lap"}, "geometry": {"type": "Point", "coordinates": [3.79085, 40.01616]}}, {"type": "Feature", "properties": {"kind": "stage", "color": "#ffffff", "label": "Stage 2 \u00b7 Menorca lap"}, "geometry": {"type": "Point", "coordinates": [3.9745, 39.93311]}}, {"type": "Feature", "properties": {"kind": "stage", "color": "#ffffff", "label": "Stage 3 \u00b7 Menorca lap"}, "geometry": {"type": "Point", "coordinates": [4.29047, 39.81878]}}, {"type": "Feature", "properties": {"kind": "stage", "color": "#ffffff", "label": "Stage 4 \u00b7 Menorca lap"}, "geometry": {"type": "Point", "coordinates": [4.27986, 39.94019]}}, {"type": "Feature", "properties": {"kind": "stage", "color": "#ffffff", "label": "Stage 5 \u00b7 Menorca lap"}, "geometry": {"type": "Point", "coordinates": [4.1605, 40.0345]}}, {"type": "Feature", "properties": {"kind": "stage", "color": "#ffffff", "label": "Stage 6 \u00b7 Menorca lap"}, "geometry": {"type": "Point", "coordinates": [4.07599, 40.06317]}}]}