{"type": "FeatureCollection", "features": [{"type": "Feature", "properties": {"from": "Pamplona", "to": "Santiago de Compostela", "mode": "bici", "km": 719, "color": "#f4a261", "dashed": 0, "cat": "done", "label": "<b>Pamplona</b> to <b>Santiago de Compostela</b><br>bike \u00b7 719 km"}, "geometry": {"type": "LineString", "coordinates": [[-1.64501, 42.812], [-1.66267, 42.80207], [-1.68825, 42.77835], [-1.7213, 42.76776], [-1.75008, 42.74752], [-1.77017, 42.71444], [-1.81958, 42.66958], [-1.84295, 42.66754], [-1.87954, 42.67117], [-1.90962, 42.67304], [-1.9505, 42.66965], [-1.9906, 42.65936], [-2.00856, 42.66002], [-2.02419, 42.66971], [-2.04724, 42.64827], [-2.08727, 42.63446], [-2.10013, 42.61376], [-2.12343, 42.60349], [-2.15676, 42.59307], [-2.19326, 42.57376], [-2.26495, 42.55755], [-2.28486, 42.55026], [-2.30001, 42.54034], [-2.3147, 42.53587], [-2.33134, 42.52701], [-2.38135, 42.51422], [-2.42214, 42.48855], [-2.44672, 42.46762], [-2.46231, 42.46019], [-2.51329, 42.44479], [-2.51627, 42.43654], [-2.55964, 42.43018], [-2.59405, 42.41466], [-2.62769, 42.41247], [-2.6776, 42.41495], [-2.7226, 42.42233], [-2.80384, 42.42621], [-2.8502, 42.43945], [-2.91787, 42.44122], [-2.97969, 42.44116], [-3.00703, 42.42586], [-3.02067, 42.42805], [-3.03307, 42.4486], [-3.06904, 42.43719], [-3.13608, 42.42738], [-3.20411, 42.41855], [-3.25906, 42.40473], [-3.31041, 42.38758], [-3.36567, 42.36639], [-3.44093, 42.37632], [-3.52305, 42.38734], [-3.55792, 42.38631], [-3.55415, 42.37381], [-3.592, 42.36116], [-3.61273, 42.36433], [-3.6969, 42.34163], [-3.70901, 42.33779], [-3.77111, 42.35175], [-3.79441, 42.35068], [-3.82394, 42.34903], [-3.91837, 42.34009], [-3.99307, 42.326], [-4.07053, 42.31077], [-4.10181, 42.29167], [-4.14773, 42.28992], [-4.24914, 42.2782], [-4.29666, 42.27874], [-4.37578, 42.25827], [-4.40607, 42.26604], [-4.44953, 42.27018], [-4.50014, 42.29822], [-4.65769, 42.34509], [-4.85663, 42.34796], [-4.92707, 42.36225], [-4.9774, 42.36482], [-5.05137, 42.37564], [-5.11094, 42.38476], [-5.21531, 42.42001], [-5.26803, 42.448], [-5.3373, 42.46842], [-5.42416, 42.49461], [-5.49413, 42.46818], [-5.51405, 42.48314], [-5.54433, 42.54113], [-5.55429, 42.58184], [-5.5858, 42.60042], [-5.6252, 42.58894], [-5.64713, 42.57841], [-5.65688, 42.56852], [-5.69832, 42.56332], [-5.81131, 42.49286], [-5.89451, 42.46078], [-5.99036, 42.45352], [-6.0625, 42.45891], [-6.1246, 42.46374], [-6.21527, 42.46306], [-6.27286, 42.4789], [-6.31067, 42.48601], [-6.3416, 42.49144], [-6.36236, 42.4885], [-6.40544, 42.49215], [-6.44121, 42.48918], [-6.44434, 42.49799], [-6.47206, 42.51317], [-6.49252, 42.52637], [-6.50294, 42.52375], [-6.51194, 42.53434], [-6.56407, 42.54524], [-6.59813, 42.54561], [-6.69585, 42.59486], [-6.75427, 42.60615], [-6.80739, 42.60102], [-6.82049, 42.61164], [-6.83968, 42.62397], [-6.86975, 42.64147], [-6.90481, 42.65556], [-6.9261, 42.66559], [-6.94756, 42.66614], [-6.97844, 42.67232], [-6.99997, 42.67645], [-7.00597, 42.68712], [-7.0339, 42.70832], [-7.07584, 42.69804], [-7.11135, 42.70768], [-7.16003, 42.73274], [-7.18942, 42.73553], [-7.2064, 42.74289], [-7.22394, 42.75255], [-7.25196, 42.75389], [-7.27312, 42.74155], [-7.29482, 42.74037], [-7.29721, 42.75774], [-7.31169, 42.76778], [-7.3518, 42.77309], [-7.41758, 42.7832], [-7.42655, 42.77883], [-7.4656, 42.78313], [-7.52842, 42.76562], [-7.55426, 42.77255], [-7.56057, 42.78285], [-7.58344, 42.79146], [-7.61505, 42.80215], [-7.66298, 42.81285], [-7.72255, 42.83563], [-7.77752, 42.85543], [-7.80581, 42.87377], [-7.85101, 42.8749], [-7.88766, 42.86872], [-7.93004, 42.86693], [-7.96423, 42.88673], [-7.99273, 42.90946], [-8.0404, 42.90583], [-8.0841, 42.88828], [-8.11241, 42.88735], [-8.14251, 42.9144], [-8.15321, 42.919], [-8.17143, 42.90687], [-8.21324, 42.89874], [-8.23175, 42.90254], [-8.27156, 42.88553], [-8.2861, 42.87769], [-8.30589, 42.86745], [-8.34513, 42.86651], [-8.35605, 42.8752], [-8.38383, 42.8774], [-8.41471, 42.88226], [-8.44727, 42.89958], [-8.49424, 42.91357], [-8.5091, 42.89461], [-8.54498, 42.87985]]}}, {"type": "Feature", "properties": {"from": "Santiago de Compostela", "to": "Lisboa", "mode": "bici", "km": 637, "color": "#f4a261", "dashed": 0, "cat": "done", "label": "<b>Santiago de Compostela</b> to <b>Lisboa</b><br>bike \u00b7 637 km"}, "geometry": {"type": "LineString", "coordinates": [[-8.54498, 42.87985], [-8.57227, 42.85938], [-8.58834, 42.83971], [-8.59912, 42.8356], [-8.61703, 42.82138], [-8.63813, 42.80228], [-8.64168, 42.79444], [-8.65104, 42.78024], [-8.65542, 42.76499], [-8.65228, 42.74842], [-8.65407, 42.72022], [-8.64007, 42.70103], [-8.63611, 42.6808], [-8.63643, 42.66141], [-8.64319, 42.6445], [-8.64558, 42.60802], [-8.63748, 42.55817], [-8.6447, 42.52648], [-8.65019, 42.51159], [-8.64832, 42.46681], [-8.64479, 42.44872], [-8.63665, 42.42489], [-8.63061, 42.38462], [-8.62827, 42.36219], [-8.61455, 42.35319], [-8.60661, 42.33986], [-8.60959, 42.32834], [-8.61858, 42.315], [-8.61281, 42.27953], [-8.62919, 42.27593], [-8.65585, 42.27664], [-8.66745, 42.26128], [-8.68904, 42.24628], [-8.71234, 42.22868], [-8.72957, 42.22573], [-8.77708, 42.20262], [-8.80951, 42.183], [-8.81276, 42.16464], [-8.81661, 42.13425], [-8.83693, 42.11442], [-8.8641, 42.11811], [-8.89532, 42.11174], [-8.89373, 42.07783], [-8.8848, 42.05154], [-8.88028, 42.03565], [-8.88013, 41.99311], [-8.88267, 41.95233], [-8.87598, 41.91013], [-8.85438, 41.89357], [-8.83967, 41.87869], [-8.86796, 41.84443], [-8.87266, 41.82014], [-8.8657, 41.79304], [-8.86853, 41.76788], [-8.87214, 41.76088], [-8.87443, 41.74061], [-8.86161, 41.71195], [-8.83891, 41.6927], [-8.82236, 41.69575], [-8.80998, 41.66874], [-8.78128, 41.61741], [-8.78666, 41.58555], [-8.79111, 41.54596], [-8.77344, 41.51399], [-8.77685, 41.48365], [-8.76758, 41.46023], [-8.78199, 41.43427], [-8.78541, 41.41536], [-8.77243, 41.38591], [-8.75153, 41.35752], [-8.73527, 41.34473], [-8.70738, 41.29615], [-8.67657, 41.29194], [-8.66492, 41.27143], [-8.64675, 41.2566], [-8.64752, 41.23662], [-8.62642, 41.17272], [-8.616, 41.14825], [-8.60972, 41.14084], [-8.63945, 41.14641], [-8.67009, 41.13483], [-8.65684, 41.09329], [-8.65271, 41.06457], [-8.64905, 41.04108], [-8.63986, 41.0162], [-8.64216, 40.98035], [-8.64748, 40.96833], [-8.65487, 40.93001], [-8.65576, 40.88859], [-8.65679, 40.86513], [-8.61102, 40.81721], [-8.61867, 40.79984], [-8.58576, 40.76315], [-8.57262, 40.74411], [-8.56296, 40.71093], [-8.55811, 40.68473], [-8.57327, 40.67583], [-8.58781, 40.67178], [-8.62339, 40.65434], [-8.65376, 40.64144], [-8.66979, 40.63567], [-8.71413, 40.62417], [-8.7369, 40.60099], [-8.75672, 40.56014], [-8.77366, 40.52634], [-8.77233, 40.50403], [-8.78404, 40.4647], [-8.79803, 40.44452], [-8.84947, 40.24019], [-8.84475, 40.21116], [-8.83813, 40.18597], [-8.85676, 40.15419], [-8.84182, 40.14963], [-8.83082, 40.08176], [-8.82431, 40.04767], [-8.8534, 40.01022], [-8.85736, 39.98353], [-8.89557, 39.96559], [-8.92155, 39.92353], [-8.99566, 39.79177], [-9.01975, 39.77591], [-9.02772, 39.75414], [-9.0482, 39.70127], [-9.06413, 39.65618], [-9.07492, 39.60702], [-9.06906, 39.60146], [-9.07119, 39.57659], [-9.08131, 39.55734], [-9.12479, 39.53292], [-9.1362, 39.51267], [-9.14449, 39.47479], [-9.15018, 39.44208], [-9.16769, 39.4192], [-9.17333, 39.39579], [-9.19198, 39.38871], [-9.21559, 39.39285], [-9.24332, 39.38708], [-9.25843, 39.39659], [-9.28013, 39.38597], [-9.32874, 39.37053], [-9.36218, 39.3589], [-9.37063, 39.35864], [-9.34403, 39.32376], [-9.31759, 39.29659], [-9.33008, 39.28964], [-9.3349, 39.2818], [-9.33078, 39.26502], [-9.33224, 39.25168], [-9.32502, 39.21888], [-9.33914, 39.19353], [-9.35021, 39.17815], [-9.36368, 39.14446], [-9.37754, 39.10489], [-9.38052, 39.09407], [-9.39105, 39.07375], [-9.40841, 39.03676], [-9.41069, 39.01094], [-9.41932, 38.96983], [-9.41142, 38.94298], [-9.39594, 38.94146], [-9.3831, 38.91161], [-9.36887, 38.88014], [-9.35707, 38.83035], [-9.31389, 38.80071], [-9.29979, 38.78902], [-9.26423, 38.77638], [-9.24488, 38.76114], [-9.2296, 38.75471], [-9.18514, 38.74489], [-9.1391, 38.72195]]}}, {"type": "Feature", "properties": {"from": "Mil\u00e1n", "to": "Pisa", "mode": "bici", "km": 351, "color": "#f4a261", "dashed": 0, "cat": "done", "label": "<b>Mil\u00e1n</b> to <b>Pisa</b><br>bike \u00b7 351 km"}, "geometry": {"type": "LineString", "coordinates": [[9.19001, 45.464], [9.18681, 45.45248], [9.17356, 45.43345], [9.10475, 45.33283], [9.14771, 45.20896], [9.15761, 45.19328], [9.1584, 45.18239], [9.18614, 45.18006], [9.19774, 45.17727], [9.20917, 45.17211], [9.25839, 45.15074], [9.27449, 45.14586], [9.28801, 45.14559], [9.29609, 45.15015], [9.31304, 45.15768], [9.34088, 45.14886], [9.3426, 45.14287], [9.34703, 45.13234], [9.34712, 45.11803], [9.34888, 45.10803], [9.35825, 45.09382], [9.3852, 45.08466], [9.41196, 45.08393], [9.43183, 45.09074], [9.45218, 45.08984], [9.50404, 45.08522], [9.50976, 45.08201], [9.51194, 45.06873], [9.51478, 45.06501], [9.53339, 45.06066], [9.53383, 45.07203], [9.53819, 45.07767], [9.56686, 45.07802], [9.58444, 45.06519], [9.60241, 45.06265], [9.63167, 45.05681], [9.69573, 45.04932], [9.7234, 45.04614], [9.80417, 45.03408], [9.89941, 44.99864], [9.93797, 44.99478], [9.96423, 44.98269], [9.96574, 44.97745], [9.96691, 44.97281], [9.99036, 44.96458], [9.97185, 44.93459], [9.99745, 44.92766], [10.00737, 44.93058], [10.00766, 44.91694], [10.02986, 44.91256], [10.05182, 44.90931], [10.05725, 44.8987], [10.05762, 44.88691], [10.06713, 44.8718], [10.06315, 44.86717], [10.06184, 44.86486], [10.06994, 44.84456], [10.07924, 44.8366], [10.10486, 44.82602], [10.10736, 44.80313], [10.13321, 44.79732], [10.1407, 44.78461], [10.13179, 44.77004], [10.14032, 44.76301], [10.11077, 44.72441], [10.10089, 44.70852], [10.09928, 44.69236], [10.10393, 44.67129], [10.12119, 44.66643], [10.12172, 44.65214], [10.10751, 44.63767], [10.1058, 44.62724], [10.09904, 44.61962], [10.09134, 44.61181], [10.08201, 44.61101], [10.0761, 44.62174], [10.06737, 44.61757], [10.06994, 44.61131], [10.07241, 44.60438], [10.07025, 44.5996], [10.0553, 44.59235], [10.04709, 44.58618], [10.03053, 44.58161], [10.01702, 44.564], [10.01079, 44.55936], [10.00451, 44.54532], [10.00432, 44.54206], [9.99822, 44.53704], [9.99571, 44.52243], [9.99611, 44.51694], [9.99009, 44.5061], [9.97268, 44.49417], [9.96674, 44.48929], [9.95021, 44.48385], [9.947, 44.47638], [9.93994, 44.47232], [9.93084, 44.4725], [9.92253, 44.46912], [9.91913, 44.46315], [9.91988, 44.45083], [9.90891, 44.4492], [9.90883, 44.44571], [9.90563, 44.44472], [9.90785, 44.43357], [9.9041, 44.42358], [9.90198, 44.41565], [9.8883, 44.40942], [9.88288, 44.40133], [9.88828, 44.40127], [9.88436, 44.38965], [9.8836, 44.37642], [9.8859, 44.37418], [9.88849, 44.36356], [9.8955, 44.35062], [9.90447, 44.33892], [9.90487, 44.32845], [9.91495, 44.32302], [9.92872, 44.29994], [9.94146, 44.29292], [9.94389, 44.28227], [9.9491, 44.27394], [9.94822, 44.266], [9.94326, 44.25218], [9.94566, 44.24188], [9.95226, 44.23481], [9.96985, 44.22254], [9.97041, 44.20808], [9.9525, 44.19868], [9.94385, 44.19474], [9.93242, 44.18356], [9.9233, 44.16844], [9.92529, 44.14292], [9.9442, 44.12111], [9.96269, 44.10898], [9.96842, 44.10313], [9.98475, 44.07282], [9.99746, 44.0599], [10.01922, 44.04724], [10.06282, 44.02828], [10.08525, 44.01629], [10.14384, 43.9778], [10.22668, 43.95656], [10.22899, 43.95941], [10.24345, 43.94405], [10.26176, 43.93545], [10.27477, 43.93008], [10.31095, 43.93407], [10.33365, 43.92062], [10.3372, 43.91372], [10.33929, 43.91768], [10.33935, 43.91387], [10.35519, 43.90389], [10.38876, 43.89875], [10.39532, 43.89646], [10.39235, 43.89063], [10.39494, 43.8856], [10.43411, 43.86627], [10.44923, 43.85408], [10.46726, 43.85837], [10.48628, 43.85479], [10.49741, 43.84411], [10.49128, 43.84315], [10.47399, 43.84167], [10.44878, 43.84681], [10.4185, 43.8285], [10.41213, 43.81235], [10.42269, 43.79652], [10.42295, 43.78889], [10.42905, 43.77101], [10.40091, 43.71576]]}}, {"type": "Feature", "properties": {"from": "Pisa", "to": "Roma", "mode": "bici", "km": 389, "color": "#f4a261", "dashed": 0, "cat": "done", "label": "<b>Pisa</b> to <b>Roma</b><br>bike \u00b7 389 km"}, "geometry": {"type": "LineString", "coordinates": [[10.40091, 43.71576], [10.39871, 43.71095], [10.3813, 43.7071], [10.31989, 43.67484], [10.30618, 43.66251], [10.2888, 43.64398], [10.29434, 43.59738], [10.30356, 43.58358], [10.31885, 43.57214], [10.31393, 43.56835], [10.3113, 43.55611], [10.30405, 43.55156], [10.30799, 43.54788], [10.30387, 43.54261], [10.30121, 43.53458], [10.31155, 43.52156], [10.31952, 43.51149], [10.3259, 43.49089], [10.33316, 43.48263], [10.33114, 43.47402], [10.35238, 43.46449], [10.3623, 43.46321], [10.39141, 43.43144], [10.40083, 43.42565], [10.40404, 43.41058], [10.40835, 43.40731], [10.43073, 43.39687], [10.433, 43.39412], [10.43899, 43.38249], [10.44973, 43.3727], [10.45187, 43.35389], [10.46026, 43.33762], [10.4652, 43.32002], [10.46751, 43.31735], [10.48169, 43.31464], [10.50501, 43.29286], [10.51469, 43.27461], [10.51588, 43.26796], [10.51914, 43.26494], [10.5298, 43.24677], [10.55055, 43.24894], [10.56742, 43.17729], [10.55389, 43.14336], [10.54413, 43.11611], [10.54023, 43.09759], [10.53941, 43.09358], [10.52788, 43.0289], [10.52243, 43.01599], [10.53056, 42.97315], [10.54091, 42.94616], [10.52554, 42.9278], [10.52292, 42.92515], [10.52255, 42.92859], [10.52951, 42.93646], [10.54125, 42.94595], [10.54518, 42.9538], [10.58874, 42.96659], [10.68085, 42.95682], [10.70472, 42.94308], [10.74507, 42.92696], [10.78009, 42.90502], [10.7927, 42.88835], [10.79832, 42.87435], [10.81811, 42.83521], [10.82534, 42.81209], [10.83793, 42.77638], [10.88433, 42.76383], [10.91856, 42.75569], [11.00342, 42.72627], [11.05282, 42.73725], [11.06108, 42.74157], [11.09632, 42.75015], [11.10701, 42.75621], [11.11293, 42.75999], [11.11407, 42.75585], [11.11992, 42.74575], [11.12669, 42.73561], [11.13565, 42.7337], [11.14305, 42.72977], [11.1552, 42.71584], [11.1579, 42.71251], [11.17727, 42.69901], [11.18549, 42.69005], [11.19763, 42.67819], [11.20192, 42.67435], [11.20632, 42.66684], [11.2125, 42.65534], [11.22086, 42.6447], [11.22561, 42.63219], [11.22888, 42.62874], [11.2539, 42.60141], [11.25501, 42.59694], [11.27814, 42.59067], [11.27438, 42.55608], [11.24137, 42.52073], [11.23883, 42.47971], [11.25057, 42.45502], [11.25532, 42.44655], [11.2536, 42.44379], [11.28074, 42.42331], [11.29782, 42.41362], [11.33875, 42.41323], [11.34999, 42.41003], [11.36582, 42.40906], [11.44788, 42.38689], [11.45777, 42.38532], [11.49, 42.3912], [11.50034, 42.39193], [11.52257, 42.37043], [11.54134, 42.36483], [11.55973, 42.35942], [11.57339, 42.35639], [11.59696, 42.35347], [11.60783, 42.34818], [11.61884, 42.32599], [11.62804, 42.31286], [11.63386, 42.30909], [11.70453, 42.26114], [11.70619, 42.24896], [11.73687, 42.2218], [11.73537, 42.20542], [11.76437, 42.16333], [11.74811, 42.15024], [11.75396, 42.13515], [11.76883, 42.12195], [11.78618, 42.10392], [11.78934, 42.09688], [11.80559, 42.08645], [11.8135, 42.08183], [11.81951, 42.06913], [11.81654, 42.06093], [11.82441, 42.05719], [11.82971, 42.04713], [11.83859, 42.03869], [11.86941, 42.03742], [11.87976, 42.04186], [11.885, 42.04221], [11.88757, 42.04525], [11.89947, 42.04066], [11.91824, 42.03858], [11.93519, 42.03159], [11.94783, 42.02639], [12.00862, 42.0031], [12.05364, 41.98142], [12.06039, 41.97475], [12.09398, 41.94373], [12.12764, 41.93211], [12.12273, 41.9356], [12.15059, 41.94245], [12.15685, 41.93555], [12.17517, 41.9256], [12.18571, 41.92295], [12.23664, 41.87667], [12.24571, 41.87031], [12.29169, 41.82928], [12.32116, 41.82842], [12.34238, 41.81695], [12.34968, 41.80589], [12.39883, 41.80154], [12.41194, 41.80203], [12.41981, 41.80821], [12.42404, 41.83156], [12.43532, 41.8251], [12.45259, 41.83238], [12.4568, 41.83998], [12.45959, 41.85794], [12.47178, 41.86143], [12.4699, 41.87962], [12.48028, 41.89175], [12.49601, 41.90299]]}}, {"type": "Feature", "properties": {"from": "Sansepolcro", "to": "Ostia", "mode": "kayak", "km": 358, "color": "#2a9d8f", "dashed": 0, "cat": "done", "label": "<b>Sansepolcro</b> to <b>Ostia</b><br>kayak \u00b7 358 km"}, "geometry": {"type": "LineString", "coordinates": [[12.12447, 43.56404], [12.12715, 43.548], [12.14388, 43.53283], [12.16014, 43.5223], [12.18116, 43.49418], [12.21044, 43.48401], [12.22426, 43.46644], [12.24638, 43.44873], [12.24592, 43.43145], [12.23931, 43.43439], [12.23619, 43.42719], [12.24522, 43.38805], [12.24123, 43.36805], [12.25321, 43.35646], [12.26459, 43.36221], [12.27265, 43.35289], [12.28742, 43.34426], [12.31227, 43.34681], [12.3066, 43.3236], [12.3028, 43.31351], [12.32533, 43.30672], [12.32883, 43.29552], [12.35803, 43.2842], [12.37975, 43.27637], [12.37702, 43.26762], [12.38909, 43.2584], [12.39569, 43.247], [12.39011, 43.23535], [12.40043, 43.22745], [12.41347, 43.2062], [12.41507, 43.19914], [12.4177, 43.18351], [12.429, 43.17229], [12.46341, 43.14636], [12.45367, 43.13735], [12.43641, 43.12933], [12.43746, 43.11641], [12.44161, 43.11013], [12.473, 43.09284], [12.45529, 43.09652], [12.44912, 43.08661], [12.43992, 43.07742], [12.43233, 43.06867], [12.42168, 43.05301], [12.42582, 43.04933], [12.41563, 43.03086], [12.42097, 43.02169], [12.43145, 43.02083], [12.40452, 42.99288], [12.41545, 42.99044], [12.40238, 42.98855], [12.40801, 42.97619], [12.39251, 42.97222], [12.40198, 42.96816], [12.39658, 42.96154], [12.39102, 42.93996], [12.39044, 42.92476], [12.38044, 42.90339], [12.39258, 42.88575], [12.37454, 42.88062], [12.38161, 42.86754], [12.37189, 42.86428], [12.39715, 42.8535], [12.40556, 42.84065], [12.37555, 42.83271], [12.3712, 42.82619], [12.39152, 42.81393], [12.40563, 42.79469], [12.38765, 42.79172], [12.37346, 42.78129], [12.37251, 42.77153], [12.34676, 42.76012], [12.32719, 42.75256], [12.31483, 42.74046], [12.30419, 42.73239], [12.28377, 42.7374], [12.24977, 42.70818], [12.21722, 42.6982], [12.20244, 42.69956], [12.1967, 42.69451], [12.20681, 42.68164], [12.21682, 42.66612], [12.23023, 42.65386], [12.24938, 42.62873], [12.23942, 42.61086], [12.25562, 42.58984], [12.2505, 42.58357], [12.27589, 42.55676], [12.27278, 42.54942], [12.27551, 42.52902], [12.27346, 42.51106], [12.28965, 42.50108], [12.29517, 42.48832], [12.31943, 42.49183], [12.34543, 42.48458], [12.36621, 42.46584], [12.39308, 42.45949], [12.39309, 42.44805], [12.41872, 42.43351], [12.41885, 42.42145], [12.4608, 42.41618], [12.44859, 42.41151], [12.43772, 42.39553], [12.45201, 42.38467], [12.46884, 42.38764], [12.4552, 42.3786], [12.46446, 42.37141], [12.45426, 42.36553], [12.46011, 42.35055], [12.46675, 42.33204], [12.4822, 42.32505], [12.47605, 42.31756], [12.48169, 42.30385], [12.51456, 42.29413], [12.53744, 42.29306], [12.55851, 42.28804], [12.55866, 42.26887], [12.5766, 42.27534], [12.58372, 42.28373], [12.57758, 42.27358], [12.60312, 42.27376], [12.60535, 42.25997], [12.63162, 42.24822], [12.62999, 42.22267], [12.61574, 42.23284], [12.60484, 42.23125], [12.60432, 42.21301], [12.61273, 42.19864], [12.60964, 42.18446], [12.62157, 42.17759], [12.63496, 42.16233], [12.63788, 42.13681], [12.63507, 42.11953], [12.62162, 42.11643], [12.61005, 42.10505], [12.60413, 42.08767], [12.58733, 42.07536], [12.56235, 42.0686], [12.54527, 42.07173], [12.54004, 42.05554], [12.55682, 42.05087], [12.54587, 42.04477], [12.51743, 42.04096], [12.52175, 42.03106], [12.51244, 42.03175], [12.51544, 42.01105], [12.51446, 42.00199], [12.49841, 41.99456], [12.50467, 41.98248], [12.49503, 41.96806], [12.5012, 41.95956], [12.49081, 41.95372], [12.48655, 41.94076], [12.48532, 41.93302], [12.46696, 41.93566], [12.45971, 41.9266], [12.47433, 41.90682], [12.46362, 41.89909], [12.47834, 41.88591], [12.47358, 41.86869], [12.46238, 41.85934], [12.47021, 41.84931], [12.4524, 41.83335], [12.42309, 41.83206], [12.4163, 41.80119], [12.38878, 41.7958], [12.35304, 41.80285], [12.33918, 41.79627], [12.2975, 41.7904], [12.27305, 41.751]]}}, {"type": "Feature", "properties": {"from": "T\u00edvoli", "to": "Roma", "mode": "kayak", "km": 145, "color": "#2a9d8f", "dashed": 0, "cat": "done", "label": "<b>T\u00edvoli</b> to <b>Roma</b><br>kayak \u00b7 145 km"}, "geometry": {"type": "LineString", "coordinates": [[12.80226, 41.96361], [12.80417, 41.95945], [12.81353, 41.95237], [12.82487, 41.95428], [12.82512, 41.95659], [12.82575, 41.95987], [12.83425, 41.96742], [12.83281, 41.96947], [12.83432, 41.9754], [12.83962, 41.9773], [12.84445, 41.97998], [12.85115, 41.9852], [12.85335, 41.9807], [12.85523, 41.98053], [12.86106, 41.98605], [12.86685, 41.98857], [12.8685, 41.98707], [12.8704, 41.98851], [12.87759, 41.99679], [12.87953, 42.00307], [12.88187, 42.00499], [12.8932, 42.01289], [12.89967, 42.01504], [12.90161, 42.01639], [12.92124, 42.01349], [12.93085, 42.01918], [12.93093, 42.021], [12.93455, 42.02433], [12.93651, 42.026], [12.9384, 42.02728], [12.94513, 42.03069], [12.9531, 42.03439], [12.9564, 42.03525], [12.95761, 42.03753], [12.95842, 42.03545], [12.96217, 42.03347], [12.97016, 42.03149], [12.97557, 42.02691], [12.98154, 42.02586], [12.98758, 42.02369], [12.99016, 42.02207], [12.99465, 42.0198], [12.99507, 42.0162], [12.99845, 42.01414], [13.00442, 42.01208], [13.0069, 42.01202], [13.00906, 42.0123], [13.01005, 42.01106], [13.01181, 42.00922], [13.01675, 42.00756], [13.02052, 42.00728], [13.01951, 42.00587], [13.02075, 42.00316], [13.01893, 41.99723], [13.02252, 41.99265], [13.02381, 41.98933], [13.02549, 41.98644], [13.02824, 41.98188], [13.03247, 41.97356], [13.03365, 41.96903], [13.03705, 41.96847], [13.04492, 41.96257], [13.05172, 41.95653], [13.05075, 41.95184], [13.05725, 41.95031], [13.05973, 41.9463], [13.06195, 41.944], [13.06251, 41.94133], [13.06423, 41.93817], [13.06586, 41.9366], [13.06709, 41.93449], [13.06969, 41.93189], [13.06925, 41.92704], [13.07407, 41.92384], [13.08265, 41.92627], [13.08937, 41.92435], [13.09356, 41.92236], [13.10415, 41.92387], [13.10659, 41.91813], [13.10906, 41.91678], [13.12476, 41.91071], [13.13364, 41.90806], [13.13554, 41.9075], [13.14187, 41.90282], [13.14625, 41.89947], [13.15195, 41.89564], [13.15193, 41.89268], [13.15424, 41.88969], [13.15839, 41.88483], [13.162, 41.88356], [13.17952, 41.8718], [13.18628, 41.87016], [13.18915, 41.8707], [13.193, 41.86855], [13.19836, 41.86398], [13.19921, 41.86172], [13.20802, 41.85875], [13.2089, 41.85646], [13.21473, 41.85573], [13.21915, 41.85627], [13.22851, 41.85711], [13.23297, 41.85941], [13.2441, 41.85947], [13.25632, 41.86022], [13.26537, 41.86052], [13.26933, 41.86173], [13.27357, 41.86487], [12.80385, 41.96695], [12.80244, 41.96898], [12.79325, 41.96795], [12.78865, 41.96502], [12.78618, 41.96327], [12.77645, 41.96181], [12.76593, 41.95896], [12.76287, 41.95854], [12.75479, 41.94901], [12.7564, 41.94526], [12.758, 41.94489], [12.75352, 41.9434], [12.75148, 41.94569], [12.7494, 41.94395], [12.74101, 41.94171], [12.73353, 41.94104], [12.73383, 41.93955], [12.72982, 41.93639], [12.72713, 41.9276], [12.71949, 41.93141], [12.71066, 41.93172], [12.70728, 41.93234], [12.70003, 41.93775], [12.69808, 41.93561], [12.69148, 41.9361], [12.68547, 41.93304], [12.68244, 41.93206], [12.67947, 41.93107], [12.67496, 41.93287], [12.67176, 41.93144], [12.66971, 41.92649], [12.66229, 41.92795], [12.66088, 41.929], [12.66561, 41.92569], [12.65978, 41.92199], [12.65612, 41.91984], [12.64868, 41.92178], [12.63861, 41.92037], [12.63297, 41.92229], [12.62854, 41.92192], [12.62199, 41.92162], [12.62074, 41.91831], [12.62042, 41.92207], [12.6154, 41.92619], [12.60171, 41.92289], [12.60076, 41.92604], [12.59049, 41.92729], [12.58207, 41.92826], [12.58157, 41.93013], [12.57928, 41.92325], [12.56993, 41.91848], [12.56759, 41.92054], [12.56323, 41.92532], [12.55535, 41.92606], [12.55462, 41.9285], [12.54622, 41.93242], [12.53948, 41.93214], [12.54338, 41.92959], [12.5399, 41.92634], [12.52954, 41.92727], [12.52933, 41.93107], [12.52749, 41.9377], [12.52143, 41.93593]]}}, {"type": "Feature", "properties": {"from": "Roma", "to": "Ostia", "mode": "kayak", "km": 44, "color": "#2a9d8f", "dashed": 0, "cat": "done", "label": "<b>Roma</b> to <b>Ostia</b><br>kayak \u00b7 44 km"}, "geometry": {"type": "LineString", "coordinates": [[12.50131, 41.94353], [12.48733, 41.94128], [12.48579, 41.939], [12.48694, 41.9347], [12.48532, 41.93302], [12.48323, 41.93302], [12.47772, 41.93649], [12.46696, 41.93566], [12.46232, 41.93295], [12.4598, 41.92949], [12.45971, 41.9266], [12.46132, 41.92434], [12.47018, 41.92027], [12.47087, 41.91389], [12.47433, 41.90682], [12.47296, 41.9034], [12.46544, 41.90179], [12.46362, 41.89909], [12.47183, 41.89159], [12.47963, 41.88856], [12.47834, 41.88591], [12.47077, 41.87998], [12.46986, 41.87741], [12.47358, 41.86869], [12.47677, 41.86537], [12.47703, 41.86296], [12.47312, 41.86074], [12.46238, 41.85934], [12.46056, 41.85543], [12.46161, 41.85273], [12.47089, 41.84877], [12.47112, 41.84666], [12.46369, 41.84429], [12.4524, 41.83335], [12.44045, 41.82639], [12.43553, 41.8262], [12.42766, 41.83317], [12.42309, 41.83206], [12.42104, 41.82857], [12.42117, 41.81892], [12.4163, 41.80119], [12.41046, 41.7978], [12.39767, 41.79946], [12.38878, 41.7958], [12.38562, 41.79585], [12.3657, 41.80343], [12.35304, 41.80285], [12.34437, 41.8056], [12.34271, 41.80492], [12.34146, 41.79824], [12.33918, 41.79627], [12.30824, 41.7978], [12.30318, 41.79575], [12.2975, 41.7904], [12.28583, 41.78851], [12.28009, 41.78215], [12.2782, 41.77168], [12.27897, 41.76528], [12.28661, 41.75677], [12.27305, 41.751]]}}, {"type": "Feature", "properties": {"from": "Roma", "to": "", "mode": "bici", "km": 737, "color": "#f4a261", "dashed": 0, "cat": "done", "label": "<b>Roma</b><br>bike \u00b7 737 km"}, "geometry": {"type": "LineString", "coordinates": [[12.49643, 41.90281], [12.50003, 41.87622], [12.57392, 41.75899], [12.58641, 41.69931], [12.62874, 41.66585], [12.64689, 41.64754], [12.66802, 41.63593], [12.72233, 41.57967], [12.78307, 41.51782], [12.7825, 41.44424], [12.82155, 41.41653], [12.93685, 41.38764], [13.00507, 41.31775], [13.02461, 41.30342], [13.15879, 41.27735], [13.20963, 41.28604], [13.25728, 41.28709], [13.41492, 41.27658], [13.43657, 41.25808], [13.47502, 41.24072], [13.54123, 41.21834], [13.56789, 41.22101], [13.62075, 41.26093], [13.71005, 41.25319], [13.77162, 41.24251], [13.79041, 41.20909], [13.82647, 41.17931], [13.84614, 41.16143], [13.86431, 41.13776], [13.94661, 41.13311], [14.0315, 41.15365], [14.11837, 41.1151], [14.19011, 41.1155], [14.26721, 41.13307], [14.29911, 41.15179], [14.37785, 41.16371], [14.42205, 41.12798], [14.44596, 41.1069], [14.49785, 41.0878], [14.52091, 41.09892], [14.52488, 41.1005], [14.54243, 41.083], [14.57413, 41.07543], [14.63249, 41.06781], [14.6573, 41.04828], [14.71256, 41.0689], [14.74103, 41.09402], [14.75348, 41.12584], [14.77605, 41.1333], [14.79709, 41.12706], [14.84164, 41.08683], [14.85266, 41.06413], [14.85586, 41.05571], [14.86065, 41.03627], [14.90299, 41.01094], [14.89245, 40.97487], [14.91289, 40.94637], [14.95963, 40.94412], [14.99235, 40.92912], [15.01714, 40.93401], [15.0318, 40.9161], [15.05993, 40.91811], [15.06706, 40.91819], [15.04443, 40.91551], [15.04462, 40.91873], [15.07965, 40.90298], [15.10655, 40.90585], [15.15823, 40.89382], [15.203, 40.8818], [15.23452, 40.89435], [15.27201, 40.88689], [15.2911, 40.87749], [15.3193, 40.86323], [15.35755, 40.86384], [15.41541, 40.88326], [15.46324, 40.88681], [15.4963, 40.88405], [15.52682, 40.86312], [15.59022, 40.84603], [15.62216, 40.85764], [15.65741, 40.86317], [15.697, 40.83388], [15.72651, 40.80707], [15.73571, 40.79917], [15.7648, 40.78402], [15.79556, 40.74727], [15.80423, 40.73327], [15.7811, 40.71765], [15.79656, 40.70128], [15.80919, 40.68195], [15.80691, 40.67378], [15.80263, 40.65354], [15.80404, 40.62899], [15.83669, 40.64434], [15.87469, 40.66332], [15.91204, 40.65914], [15.94136, 40.6639], [15.97094, 40.66443], [15.97425, 40.64682], [16.01692, 40.62718], [16.04063, 40.60037], [16.05513, 40.57296], [16.07016, 40.54231], [16.06602, 40.5296], [16.06158, 40.5292], [16.06303, 40.51892], [16.0524, 40.51501], [16.06325, 40.51803], [16.06568, 40.51368], [16.07604, 40.499], [16.08768, 40.47998], [16.10863, 40.46007], [16.14128, 40.45259], [16.1666, 40.42501], [16.17204, 40.42874], [16.20162, 40.42249], [16.2172, 40.41654], [16.23215, 40.40197], [16.25113, 40.40675], [16.27534, 40.40403], [16.30198, 40.39214], [16.33003, 40.37503], [16.38954, 40.36546], [16.40418, 40.38507], [16.43103, 40.38397], [16.41211, 40.38496], [16.39943, 40.36808], [16.41111, 40.34775], [16.40714, 40.3668], [16.39917, 40.37883], [16.42795, 40.38473], [16.44933, 40.37533], [16.45719, 40.3751], [16.46603, 40.38824], [16.47741, 40.42629], [16.50812, 40.4635], [16.48703, 40.49502], [16.48111, 40.5266], [16.48035, 40.53677], [16.48238, 40.54194], [16.4889, 40.54333], [16.4995, 40.56153], [16.52194, 40.56253], [16.53383, 40.5781], [16.56544, 40.57587], [16.57943, 40.58657], [16.58725, 40.61005], [16.57729, 40.61543], [16.56759, 40.64764], [16.58666, 40.67345], [16.60223, 40.67905], [16.62709, 40.67106], [16.61693, 40.66693], [16.60677, 40.66984], [16.57858, 40.71043], [16.57306, 40.72856], [16.55263, 40.7496], [16.55309, 40.79323], [16.55391, 40.81811], [16.56929, 40.84168], [16.61866, 40.88401], [16.63646, 40.94284], [16.66088, 40.95302], [16.70486, 41.00467], [16.72918, 41.02357], [16.77891, 41.08161], [16.81499, 41.10815], [16.81606, 41.11765], [16.84829, 41.12049], [16.86882, 41.13273]]}}, {"type": "Feature", "properties": {"from": "", "to": "", "mode": "barco", "km": 217, "color": "#118ab2", "dashed": 0, "cat": "done", "label": "boat \u00b7 217 km"}, "geometry": {"type": "LineString", "coordinates": [[16.867, 41.131], [17.51139, 41.18116], [18.15673, 41.22772], [18.80296, 41.27067], [19.45, 41.31]]}}, {"type": "Feature", "properties": {"from": "", "to": "", "mode": "bici", "km": 757, "color": "#f4a261", "dashed": 0, "cat": "done", "label": "bike \u00b7 757 km"}, "geometry": {"type": "LineString", "coordinates": [[19.47182, 41.3175], [19.52096, 41.35247], [19.55631, 41.34406], [19.61366, 41.37227], [19.67113, 41.38255], [19.71399, 41.36524], [19.77648, 41.3394], [19.8205, 41.32826], [19.81575, 41.31355], [19.83207, 41.29846], [19.84404, 41.28675], [19.86139, 41.27556], [19.88238, 41.26451], [19.90092, 41.24761], [19.92531, 41.23482], [19.93553, 41.22155], [19.95464, 41.21077], [19.95129, 41.20891], [19.93104, 41.20452], [19.95012, 41.16714], [19.96142, 41.15326], [19.98113, 41.123], [20.00572, 41.10927], [20.01017, 41.10158], [20.01121, 41.09678], [20.03318, 41.10062], [20.06282, 41.09447], [20.06097, 41.08177], [19.94225, 40.99592], [19.89326, 40.97081], [19.85513, 40.93755], [19.82425, 40.91802], [19.81551, 40.90268], [19.81917, 40.86664], [19.74707, 40.8589], [19.65886, 40.77726], [19.6076, 40.7447], [19.57473, 40.73398], [19.54505, 40.70816], [19.49133, 40.67843], [19.48001, 40.58424], [19.47421, 40.53362], [19.46035, 40.51317], [19.48846, 40.47029], [19.49501, 40.44468], [19.4805, 40.40208], [19.48558, 40.34781], [19.48253, 40.30457], [19.52282, 40.26212], [19.55605, 40.23396], [19.57855, 40.22007], [19.58682, 40.20546], [19.59837, 40.18996], [19.60094, 40.1823], [19.59179, 40.17971], [19.61135, 40.1651], [19.63392, 40.14781], [19.65091, 40.13553], [19.67551, 40.14275], [19.68058, 40.14509], [19.69891, 40.13743], [19.73294, 40.1281], [19.73901, 40.11362], [19.76068, 40.09596], [19.78416, 40.07063], [19.8118, 40.04944], [19.84696, 40.05815], [19.86291, 40.03851], [19.87769, 40.02842], [19.89129, 40.02129], [19.89727, 40.01363], [19.90176, 40.00333], [19.91099, 39.9986], [19.91966, 39.9833], [19.96337, 39.96496], [19.96956, 39.94859], [19.97932, 39.92876], [20.02988, 39.87532], [20.06561, 39.82337], [20.08821, 39.80726], [20.1221, 39.79109], [20.12148, 39.75907], [20.12452, 39.7179], [20.13975, 39.67607], [20.16603, 39.66154], [20.14545, 39.65065], [20.16379, 39.63816], [20.19878, 39.61749], [20.21211, 39.5984], [20.22271, 39.58249], [20.23546, 39.54807], [20.25904, 39.51258], [20.2663, 39.50179], [20.27821, 39.49184], [20.31654, 39.47162], [20.35956, 39.45123], [20.38065, 39.39196], [20.40839, 39.36609], [20.42155, 39.32847], [20.44891, 39.31307], [20.46423, 39.29802], [20.47914, 39.28687], [20.52313, 39.26302], [20.53697, 39.23347], [20.52843, 39.22299], [20.53418, 39.20456], [20.53223, 39.19064], [20.5669, 39.15543], [20.58847, 39.13123], [20.61692, 39.11277], [20.66066, 39.09147], [20.70354, 39.054], [20.7109, 39.00077], [20.72641, 38.96529], [20.73056, 38.95587], [20.72392, 39.00382], [20.73538, 39.02212], [20.75895, 39.03529], [20.75375, 39.16026], [20.81207, 39.17528], [20.81421, 39.14711], [20.81916, 39.11524], [20.88585, 39.07851], [20.92127, 39.07938], [20.97052, 39.08558], [21.01514, 39.06934], [21.06884, 39.05728], [21.08451, 39.06979], [21.12121, 39.04059], [21.12756, 39.0254], [21.13633, 39.01973], [21.14698, 39.00577], [21.16888, 38.96595], [21.17138, 38.88592], [21.14989, 38.89311], [21.13028, 38.89739], [21.10006, 38.88821], [21.06555, 38.86793], [21.02435, 38.88027], [20.98628, 38.89718], [20.96537, 38.91304], [20.91661, 38.92886], [20.8998, 38.89626], [20.88958, 38.87075], [20.88193, 38.78139], [20.8883, 38.75129], [20.89509, 38.72013], [20.90242, 38.69476], [20.93099, 38.67824], [20.98992, 38.64562], [21.02264, 38.59654], [21.01619, 38.56019], [21.04423, 38.50529], [21.09809, 38.53028], [21.10586, 38.51997], [21.11117, 38.50948], [21.12371, 38.5045], [21.15978, 38.49791], [21.23297, 38.45662], [21.2523, 38.43245], [21.32018, 38.42803], [21.32616, 38.44731], [21.34761, 38.43583], [21.42284, 38.37857], [21.4714, 38.36678], [21.53898, 38.36886], [21.56008, 38.37788], [21.59552, 38.39345], [21.64248, 38.37114], [21.75423, 38.33458]]}}, {"type": "Feature", "properties": {"from": "", "to": "", "mode": "barco", "km": 2, "color": "#118ab2", "dashed": 0, "cat": "done", "label": "boat \u00b7 2 km"}, "geometry": {"type": "LineString", "coordinates": [[21.75476, 38.33443], [21.77377, 38.31988]]}}, {"type": "Feature", "properties": {"from": "", "to": "", "mode": "bici", "km": 488, "color": "#f4a261", "dashed": 0, "cat": "done", "label": "bike \u00b7 488 km"}, "geometry": {"type": "LineString", "coordinates": [[21.78009, 38.30833], [21.76779, 38.28631], [21.74388, 38.26319], [21.73599, 38.25023], [21.71836, 38.21144], [21.69014, 38.18965], [21.67134, 38.16757], [21.64524, 38.15614], [21.61728, 38.14528], [21.5733, 38.14345], [21.57513, 38.15023], [21.54117, 38.14476], [21.50812, 38.13169], [21.49834, 38.11841], [21.46656, 38.1073], [21.42597, 38.10102], [21.38158, 38.0615], [21.36427, 38.02738], [21.34147, 38.01273], [21.33252, 38.00448], [21.31742, 37.98004], [21.29564, 37.94468], [21.26416, 37.93702], [21.2687, 37.90675], [21.30274, 37.88757], [21.31002, 37.87841], [21.32936, 37.84198], [21.34384, 37.78603], [21.33821, 37.7763], [21.33577, 37.74497], [21.34173, 37.72823], [21.35785, 37.68898], [21.38886, 37.6783], [21.44922, 37.67323], [21.46181, 37.66589], [21.47445, 37.64656], [21.5064, 37.61826], [21.55845, 37.58087], [21.58586, 37.55121], [21.59291, 37.53126], [21.60136, 37.51966], [21.62983, 37.50237], [21.65192, 37.4767], [21.64775, 37.45691], [21.65326, 37.44408], [21.69045, 37.39042], [21.69028, 37.37379], [21.69754, 37.35031], [21.70044, 37.3261], [21.69788, 37.29938], [21.69937, 37.28604], [21.68644, 37.27397], [21.67849, 37.26052], [21.66148, 37.25382], [21.66734, 37.24186], [21.64607, 37.21455], [21.62172, 37.20265], [21.60754, 37.19919], [21.58469, 37.18178], [21.58232, 37.16412], [21.5844, 37.15432], [21.58465, 37.12467], [21.59618, 37.10148], [21.60046, 37.09517], [21.6044, 37.06898], [21.59905, 37.05159], [21.63366, 37.01387], [21.65483, 37.01049], [21.6684, 36.99976], [21.66311, 36.98477], [21.65982, 36.9659], [21.66102, 36.96679], [21.67114, 36.98932], [21.70632, 37.00499], [21.73929, 37.01274], [21.75237, 37.01407], [21.77615, 37.02129], [21.79016, 37.03055], [21.81269, 37.03428], [21.82273, 37.04041], [21.84054, 37.03867], [21.86643, 37.03453], [21.88463, 37.0359], [21.89983, 37.02336], [21.92256, 37.00479], [21.94879, 36.99919], [21.96894, 37.01991], [21.99875, 37.0254], [22.00859, 37.03252], [22.01663, 37.04203], [22.05764, 37.0512], [22.08342, 37.03671], [22.11136, 37.04039], [22.15191, 37.01899], [22.14976, 36.97847], [22.14481, 36.95856], [22.14699, 36.93926], [22.14722, 36.92755], [22.1552, 36.91745], [22.17033, 36.92912], [22.19067, 36.9284], [22.21438, 36.91856], [22.2332, 36.91226], [22.23519, 36.90704], [22.23892, 36.90053], [22.2366, 36.89734], [22.22822, 36.89744], [22.23662, 36.88437], [22.24992, 36.86792], [22.26674, 36.84387], [22.29511, 36.81553], [22.29966, 36.80705], [22.30947, 36.80199], [22.31649, 36.80369], [22.32989, 36.78525], [22.34035, 36.77862], [22.33913, 36.76552], [22.35076, 36.73125], [22.38778, 36.70883], [22.37415, 36.69879], [22.3884, 36.69454], [22.37948, 36.6793], [22.38229, 36.68723], [22.42328, 36.68713], [22.44716, 36.69402], [22.47577, 36.70306], [22.5067, 36.7346], [22.52859, 36.72676], [22.56495, 36.73627], [22.56642, 36.75868], [22.56273, 36.76927], [22.5783, 36.7863], [22.58258, 36.78877], [22.58627, 36.81069], [22.58558, 36.83619], [22.58213, 36.84878], [22.5834, 36.86044], [22.57088, 36.87219], [22.54712, 36.88218], [22.54935, 36.892], [22.53188, 36.90803], [22.53196, 36.92537], [22.5199, 36.94483], [22.50732, 36.96876], [22.48572, 37.00445], [22.48714, 37.01503], [22.47005, 37.03113], [22.44344, 37.0553], [22.42803, 37.07291], [22.41513, 37.07722], [22.39758, 37.06806], [22.36951, 37.07522], [22.37381, 37.07067], [22.36927, 37.07353], [22.37198, 37.07267], [22.37194, 37.07056], [22.36543, 37.07286], [22.36921, 37.07749], [22.38871, 37.06044], [22.40762, 37.04834], [22.43104, 37.03082], [22.43288, 36.99875], [22.44651, 36.96534], [22.43861, 36.95082], [22.40596, 36.94325], [22.39344, 36.93209], [22.38949, 36.92824], [22.37303, 36.93163], [22.3637, 36.94226], [22.3713, 36.9481]]}}, {"type": "Feature", "properties": {"from": "", "to": "", "mode": "pie", "km": 8, "color": "#06d6a0", "dashed": 0, "cat": "done", "label": "on foot \u00b7 8 km"}, "geometry": {"type": "LineString", "coordinates": [[22.3713, 36.9481], [22.37045, 36.95024], [22.36898, 36.95019], [22.36954, 36.95139], [22.36707, 36.95018], [22.36108, 36.95596], [22.35774, 36.96214], [22.34807, 36.95198], [22.35774, 36.96214], [22.36108, 36.95596], [22.36674, 36.95041], [22.37116, 36.948], [22.3752, 36.94775]]}}, {"type": "Feature", "properties": {"from": "", "to": "", "mode": "bici", "km": 409, "color": "#f4a261", "dashed": 0, "cat": "done", "label": "bike \u00b7 409 km"}, "geometry": {"type": "LineString", "coordinates": [[22.3752, 36.94775], [22.3816, 36.9533], [22.38005, 36.96402], [22.38734, 36.96744], [22.404, 36.96874], [22.40884, 36.96959], [22.42467, 36.97474], [22.43237, 36.97769], [22.43721, 36.98032], [22.43355, 36.99036], [22.43698, 37.02022], [22.42327, 37.03699], [22.42794, 37.04999], [22.42318, 37.06081], [22.42803, 37.07291], [22.43005, 37.08487], [22.43004, 37.10308], [22.43194, 37.1113], [22.43594, 37.12893], [22.43421, 37.14607], [22.43179, 37.15829], [22.42926, 37.18247], [22.4264, 37.20618], [22.42163, 37.22903], [22.42597, 37.23932], [22.44083, 37.24472], [22.4398, 37.26702], [22.45321, 37.28115], [22.46784, 37.29104], [22.4377, 37.31816], [22.43029, 37.32118], [22.418, 37.33557], [22.41073, 37.35057], [22.41093, 37.35933], [22.40313, 37.3814], [22.40307, 37.40263], [22.39091, 37.42708], [22.39898, 37.44041], [22.39279, 37.46669], [22.39213, 37.48488], [22.37582, 37.50959], [22.37375, 37.51526], [22.40643, 37.49218], [22.42946, 37.46631], [22.47802, 37.43664], [22.5131, 37.44545], [22.5689, 37.43607], [22.60843, 37.43061], [22.62917, 37.43616], [22.65571, 37.43819], [22.68509, 37.41455], [22.69893, 37.4134], [22.73078, 37.41922], [22.74586, 37.44559], [22.74587, 37.45577], [22.74425, 37.46294], [22.72457, 37.48525], [22.73613, 37.51311], [22.73406, 37.52329], [22.72191, 37.53813], [22.71697, 37.56285], [22.72064, 37.59672], [22.71594, 37.61493], [22.73024, 37.64933], [22.74906, 37.70762], [22.75083, 37.71945], [22.75374, 37.7304], [22.7397, 37.72812], [22.73291, 37.74183], [22.72059, 37.74503], [22.70703, 37.74908], [22.712, 37.77162], [22.72375, 37.77843], [22.70782, 37.78482], [22.72235, 37.8015], [22.71048, 37.80617], [22.71156, 37.81246], [22.7102, 37.84778], [22.7036, 37.86095], [22.71497, 37.87635], [22.72333, 37.87971], [22.72468, 37.88523], [22.74028, 37.89381], [22.75391, 37.91119], [22.79997, 37.93424], [22.83194, 37.92805], [22.86662, 37.90948], [22.87886, 37.90301], [22.88631, 37.90237], [22.90484, 37.90118], [22.96404, 37.89284], [22.9974, 37.88865], [22.99748, 37.88709], [22.99257, 37.89095], [23.01236, 37.90574], [23.00373, 37.9141], [23.00371, 37.91949], [22.99394, 37.92627], [23.00462, 37.92159], [23.01803, 37.92479], [23.06226, 37.91944], [23.10024, 37.9187], [23.13235, 37.9326], [23.19474, 37.96299], [23.21624, 37.9741], [23.27974, 37.97754], [23.31334, 37.97255], [23.34476, 37.97706], [23.36837, 37.97317], [23.37092, 37.97736], [23.39706, 37.99379], [23.41699, 37.99952], [23.4331, 38.01315], [23.46241, 38.02844], [23.47667, 38.0253], [23.49093, 38.02725], [23.49609, 38.03548], [23.50764, 38.0428], [23.5292, 38.06377], [23.53152, 38.07222], [23.55568, 38.08277], [23.66294, 38.06075], [23.7054, 38.07002], [23.70802, 38.06085], [23.69912, 38.05456], [23.67512, 38.02807], [23.67325, 38.01964], [23.66507, 38.01006], [23.65955, 38.00306], [23.67242, 37.99497], [23.71735, 37.98295], [23.73487, 37.97297], [23.74032, 37.97694], [23.74482, 37.96741], [23.7402, 37.9639], [23.72244, 37.96996], [23.72377, 37.97147], [23.73129, 37.97823], [23.73278, 37.98716], [23.72799, 37.98903], [23.72614, 37.97671], [23.70169, 37.96092], [23.71685, 37.94524], [23.7351, 37.93013], [23.74546, 37.91496], [23.75657, 37.89633], [23.76635, 37.88039], [23.76942, 37.86751], [23.77321, 37.84717], [23.77434, 37.84204], [23.81392, 37.83366], [23.82076, 37.84307], [23.85875, 37.8411], [23.8696, 37.82103], [23.88666, 37.80032], [23.92785, 37.78263], [23.95727, 37.77148], [23.99149, 37.77999], [23.99585, 37.77177], [24.00944, 37.76685], [24.02383, 37.75977], [24.02808, 37.75406], [24.05382, 37.73541], [24.06302, 37.74723], [24.07159, 37.74906], [24.07667, 37.74402], [24.06774, 37.75081], [24.05806, 37.73694], [24.04527, 37.73054], [24.06323, 37.70953]]}}, {"type": "Feature", "properties": {"from": "", "to": "", "mode": "barco", "km": 196, "color": "#118ab2", "dashed": 0, "cat": "done", "label": "boat \u00b7 196 km"}, "geometry": {"type": "LineString", "coordinates": [[24.0577, 37.7136], [24.57441, 37.88063], [25.09345, 38.04538], [25.61482, 38.20785], [26.1385, 38.368]]}}, {"type": "Feature", "properties": {"from": "", "to": "", "mode": "bici", "km": 40, "color": "#f4a261", "dashed": 0, "cat": "done", "label": "bike \u00b7 40 km"}, "geometry": {"type": "LineString", "coordinates": [[25.92743, 38.30284], [25.92822, 38.30113], [25.92638, 38.29334], [25.92767, 38.28999], [25.93158, 38.28873], [25.93015, 38.28711], [25.93072, 38.28196], [25.92783, 38.27907], [25.92933, 38.27327], [25.92427, 38.26799], [25.92156, 38.26734], [25.91831, 38.26035], [25.92085, 38.25786], [25.91994, 38.25326], [25.92433, 38.25023], [25.92767, 38.25034], [25.92968, 38.24437], [25.93388, 38.24535], [25.94144, 38.24289], [25.94658, 38.24277], [25.95604, 38.23368], [25.95786, 38.23416], [25.95985, 38.23693], [25.96538, 38.23651], [25.97466, 38.22981], [25.99705, 38.2271], [25.99793, 38.22805], [26.00739, 38.22362], [26.0104, 38.224], [26.01687, 38.22862], [26.01859, 38.23871], [26.02329, 38.24632], [26.02747, 38.25067], [26.03004, 38.2516], [26.03795, 38.26407], [26.04532, 38.27284], [26.04927, 38.27502], [26.0495, 38.27947], [26.05175, 38.28173], [26.05241, 38.28523], [26.05602, 38.28577], [26.05867, 38.28789], [26.05883, 38.28453], [26.06021, 38.28364], [26.06926, 38.29035], [26.07418, 38.28986], [26.07456, 38.29163], [26.0792, 38.29496], [26.07977, 38.29724], [26.09252, 38.30184], [26.09393, 38.3065], [26.09855, 38.30908], [26.0987, 38.31321], [26.10102, 38.31693], [26.10536, 38.32066], [26.11506, 38.32639], [26.1241, 38.32964], [26.1306, 38.3347], [26.13272, 38.34167], [26.12936, 38.35207], [26.13143, 38.35901], [26.13002, 38.36118], [26.13104, 38.3667], [26.13151, 38.36862], [26.13822, 38.36901], [26.13722, 38.37233], [26.1394, 38.37282], [26.13774, 38.37221]]}}, {"type": "Feature", "properties": {"from": "", "to": "", "mode": "barco", "km": 15, "color": "#118ab2", "dashed": 0, "cat": "done", "label": "boat \u00b7 15 km"}, "geometry": {"type": "LineString", "coordinates": [[26.1385, 38.368], [26.305, 38.324]]}}, {"type": "Feature", "properties": {"from": "", "to": "Pommersfelden", "mode": "bici", "km": 3606, "color": "#f4a261", "dashed": 0, "cat": "done", "label": "to <b>Pommersfelden</b><br>bike \u00b7 3606 km"}, "geometry": {"type": "LineString", "coordinates": [[26.28363, 38.35215], [26.38112, 38.30912], [26.51422, 38.41137], [26.61743, 38.40699], [26.74729, 38.36688], [27.1065, 38.40836], [27.094, 38.45525], [27.0328, 38.54521], [26.92868, 38.62756], [26.90498, 38.73508], [26.97338, 38.80174], [27.06689, 38.87175], [27.03828, 38.94414], [27.03655, 39.01761], [26.84614, 39.13405], [26.73238, 39.29479], [26.73032, 39.34648], [26.8171, 39.41851], [26.92449, 39.48036], [26.92382, 39.58472], [26.78106, 39.57054], [26.635, 39.5583], [26.4543, 39.53793], [26.44842, 39.65783], [26.39393, 39.76581], [26.24527, 39.81529], [26.30335, 39.93767], [26.31191, 40.01635], [26.48536, 40.16577], [26.54211, 40.23023], [26.63904, 40.31292], [26.65995, 40.30836], [26.54545, 40.35015], [26.55824, 40.30583], [26.67987, 40.41095], [26.83033, 40.57401], [27.14299, 40.61685], [27.34393, 40.76608], [27.38983, 40.811], [27.41434, 40.87501], [27.51817, 40.97767], [27.61354, 41.08979], [27.83141, 41.14343], [27.96495, 41.12594], [28.16076, 41.09598], [28.32353, 41.08555], [28.5298, 41.01031], [28.68285, 41.00482], [28.82474, 40.9577], [28.91188, 40.98792], [28.98043, 41.00812], [28.89873, 41.08086], [28.89325, 41.15275], [28.823, 41.17012], [28.71711, 41.19868], [28.52451, 41.18542], [28.36049, 41.25818], [28.25594, 41.24075], [28.07162, 41.26312], [27.92725, 41.37997], [27.90098, 41.44568], [27.47945, 41.44022], [27.33905, 41.55111], [27.26081, 41.71197], [27.15624, 41.75712], [26.91601, 41.76988], [26.69336, 41.81823], [26.50468, 41.66005], [26.27136, 41.68748], [26.13366, 41.7863], [26.10411, 41.90707], [25.98937, 41.98078], [25.86953, 42.08031], [25.95118, 42.22011], [25.7317, 42.42866], [25.6367, 42.55915], [25.39446, 42.61806], [25.39245, 42.73578], [25.36898, 42.69701], [25.25217, 42.62106], [24.95395, 42.61053], [24.77848, 42.41395], [24.70643, 42.14246], [24.36026, 42.17319], [24.00869, 42.21616], [23.86326, 42.31444], [23.79576, 42.46782], [23.71083, 42.62846], [23.41909, 42.70875], [23.31397, 42.68947], [23.28118, 42.74262], [23.07607, 42.84784], [22.87077, 42.94985], [22.84399, 42.9882], [22.61961, 43.12338], [22.44976, 43.23338], [22.22361, 43.27993], [22.01812, 43.30056], [21.77249, 43.47788], [21.63032, 43.59471], [21.47655, 43.74627], [21.1955, 44.02402], [21.09408, 44.19593], [21.08143, 44.48559], [20.87949, 44.67104], [20.70993, 44.72201], [20.55418, 44.85668], [20.4789, 44.80029], [20.20206, 44.95593], [19.95651, 45.16402], [19.8222, 45.29735], [19.69331, 45.67709], [19.68096, 46.06887], [19.51968, 46.33567], [19.29541, 46.61227], [18.95566, 46.8742], [18.96018, 47.05524], [18.94147, 47.17882], [19.04122, 47.32345], [19.06876, 47.47468], [19.03943, 47.50777], [19.03391, 47.50643], [18.83488, 47.62327], [18.72598, 47.73728], [18.6854, 47.74743], [18.27498, 47.7208], [17.90286, 47.73366], [17.63505, 47.80835], [17.18178, 48.06329], [17.06571, 48.09119], [16.91985, 47.91683], [16.93081, 47.74504], [16.80604, 47.52145], [16.56515, 47.44177], [16.41835, 47.40933], [16.47478, 47.49118], [16.43772, 47.45547], [16.43374, 47.4091], [16.3527, 47.4911], [16.3867, 47.58525], [16.40276, 47.71335], [16.41542, 47.79376], [16.39106, 47.90489], [16.18209, 47.92674], [16.02548, 47.99032], [15.82741, 48.0363], [15.64768, 48.05132], [15.63315, 48.13157], [15.50809, 48.19768], [15.36542, 48.22315], [15.05339, 48.19821], [14.77663, 48.18265], [14.62905, 48.19984], [14.46327, 48.25605], [14.29194, 48.30655], [14.11991, 48.3108], [13.97152, 48.41544], [13.86321, 48.42356], [13.56916, 48.55937], [13.3871, 48.59509], [13.17418, 48.62067], [12.97787, 48.61292], [12.69167, 48.59943], [12.46757, 48.52599], [12.34224, 48.42995], [12.21418, 48.35036], [11.95229, 48.28667], [11.78957, 48.24351], [11.61474, 48.16837], [11.50655, 48.08621]]}}, {"type": "Feature", "properties": {"from": "Ulm", "to": "Delta del Danubio", "mode": "kayak", "km": 3386, "color": "#2a9d8f", "dashed": 0, "cat": "done", "label": "<b>Ulm</b> to <b>Delta del Danubio</b><br>kayak \u00b7 3386 km"}, "geometry": {"type": "LineString", "coordinates": [[9.9844, 48.4001], [9.9922, 48.3947], [10.0916, 48.4377], [10.3365, 48.4858], [10.4895, 48.5666], [10.5815, 48.602], [10.8907, 48.7326], [11.0814, 48.7276], [11.1433, 48.7334], [11.4236, 48.7559], [11.6969, 48.7985], [11.8183, 48.8974], [11.84982, 48.92166], [11.8672, 48.9183], [12.03389, 49.01638], [12.20821, 49.02804], [12.3433, 48.9765], [12.4904, 48.9619], [12.5321, 48.904], [12.6919, 48.8997], [12.884, 48.8414], [12.9764, 48.8034], [13.1926, 48.6333], [13.4647, 48.5743], [13.5023, 48.5814], [13.7461, 48.4919], [13.9196, 48.4436], [13.9597, 48.4176], [14.0551, 48.3249], [14.2779, 48.3074], [14.4585, 48.235], [14.6475, 48.1742], [14.8895, 48.2317], [15.0689, 48.1878], [15.2288, 48.2143], [15.3327, 48.2377], [15.3632, 48.2504], [15.4097, 48.3537], [15.522, 48.398], [15.7858, 48.3815], [15.9455, 48.341], [16.0602, 48.3365], [16.3616, 48.2344], [16.419, 47.4054], [16.37529, 48.21137], [16.6372, 48.1301], [16.9705, 48.173], [17.1419, 48.1339], [17.2383, 48.0277], [17.42, 47.9303], [17.7411, 47.7518], [17.8723, 47.7425], [18.3121, 47.7357], [18.582, 47.7624], [18.7341, 47.7966], [18.8495, 47.818], [19.0355, 47.7969], [19.0784, 47.6489], [19.0399, 47.5225], [19.0376, 47.5058], [19.03752, 47.50584], [19.08208, 47.51501], [19.1213, 47.506], [19.0367, 47.5031], [18.9517, 47.3478], [18.9074, 47.0664], [18.9532, 46.9651], [18.985, 46.7509], [19.0025, 46.6913], [18.8602, 46.5995], [18.91736, 46.44192], [18.90309, 46.33013], [18.9371, 46.1802], [18.8494, 46.1714], [18.70675, 45.98558], [18.8596, 45.8496], [18.9056, 45.6174], [19.0874, 45.5214], [18.9964, 45.4818], [18.9807, 45.3944], [18.9826, 45.3669], [19.0276, 45.343], [19.12612, 45.298], [19.1663, 45.2675], [19.2956, 45.2319], [19.3718, 45.2314], [19.5769, 45.214], [19.8151, 45.2227], [19.8583, 45.2609], [20.0647, 45.1686], [20.2609, 45.1493], [20.3466, 45.0067], [20.4635, 44.8288], [20.4933, 44.8162], [20.6929, 44.7384], [20.699, 44.7406], [20.8781, 44.6631], [21.0347, 44.7161], [21.257, 44.7861], [21.5835, 44.7571], [21.6496, 44.6641], [21.7884, 44.6565], [21.9645, 44.637], [22.0386, 44.5599], [22.0561, 44.5645], [22.0829, 44.5069], [22.1894, 44.5064], [22.2218, 44.5594], [22.3134, 44.6595], [22.4849, 44.6975], [22.651, 44.6274], [22.6891, 44.6101], [22.60539, 44.54909], [22.4537, 44.4814], [22.6305, 44.2896], [22.8804, 44.1231], [22.97514, 44.00887], [22.87743, 43.98337], [22.8477, 43.8688], [23.318, 43.84718], [23.7294, 43.7826], [23.7503, 43.784], [23.7642, 43.7707], [24.2364, 43.6906], [24.4433, 43.7439], [24.6929, 43.715], [24.90111, 43.70492], [24.911, 43.7105], [25.1336, 43.655], [25.3536, 43.6212], [25.5573, 43.6389], [25.9433, 43.847], [26.0083, 43.8842], [26.3467, 44.0286], [26.6678, 44.0607], [27.2578, 44.122], [27.2686, 44.1199], [27.3856, 44.1052], [27.4712, 44.133], [27.7343, 44.2008], [28.0116, 44.3237], [28.02893, 44.55046], [28.0181, 44.6007], [28.0006, 44.5887], [28.06, 44.6174], [27.8984, 44.2344], [28.0297, 44.6302], [27.9536, 44.6793], [27.86645, 44.77533], [27.9002, 44.958], [28.0236, 45.3733], [28.0344, 45.4174], [28.1934, 45.4424], [28.2682, 45.4497], [28.33935, 45.3275], [28.5167, 45.2641], [28.7909, 45.1928], [28.9062, 45.164], [29.092, 45.0911], [29.2886, 44.9996], [29.4266, 44.9792], [29.622, 44.8906], [29.5836, 44.8928], [29.5379, 44.7976], [29.5925, 44.8491], [29.58705, 44.90736], [29.6273, 44.9883], [29.6341, 45.1443], [29.6385, 45.2076], [28.79258, 45.1812]]}}, {"type": "Feature", "properties": {"from": "", "to": "", "mode": "autostop", "km": 5123, "color": "#e9c46a", "dashed": 0, "cat": "done", "label": "hitchhiking \u00b7 5123 km"}, "geometry": {"type": "LineString", "coordinates": [[28.79239, 45.1809], [28.73142, 44.91537], [28.54197, 44.44117], [28.63718, 44.16062], [28.57299, 43.81293], [28.38743, 43.44817], [27.98657, 43.34097], [27.91689, 43.20295], [27.84765, 43.17021], [27.77075, 42.96371], [27.84669, 42.76778], [27.73928, 42.72495], [27.46862, 42.53135], [27.47537, 42.49233], [27.49072, 42.35909], [27.43213, 42.19228], [27.43329, 42.05508], [27.46414, 41.97193], [27.36195, 41.90399], [27.2177, 41.72466], [27.49742, 41.41768], [27.99454, 41.21001], [28.55334, 41.17363], [29.20706, 41.19057], [29.11873, 41.1756], [29.03677, 41.11098], [29.00885, 41.08401], [29.0779, 41.16671], [29.11647, 41.11062], [29.0369, 41.15839], [29.02818, 41.04891], [28.98945, 41.04607], [28.97173, 41.02858], [28.97403, 41.03123], [28.92771, 41.02269], [28.92648, 41.01845], [28.97637, 41.01625], [29.02795, 41.02818], [29.0963, 40.9523], [29.3624, 40.81614], [29.38351, 40.63099], [29.10459, 40.33069], [28.44049, 40.24763], [28.073, 39.82631], [27.676, 39.53241], [27.60876, 39.1851], [27.75295, 38.87766], [27.20002, 38.6272], [27.07739, 38.48339], [27.13379, 38.35431], [27.22176, 38.25935], [27.4009, 38.08142], [27.48605, 38.01172], [27.42777, 37.95315], [27.42777, 37.95315], [27.49622, 37.88539], [28.05841, 37.61366], [28.1607, 37.35854], [28.36299, 37.06983], [28.55247, 37.00642], [28.64712, 36.836], [28.63673, 36.82657], [28.76564, 36.83885], [29.01928, 36.74543], [29.11842, 36.61927], [29.39791, 36.65299], [29.50139, 36.7972], [29.75323, 36.93796], [30.03688, 37.0434], [30.36667, 37.01529], [30.63264, 36.952], [30.76998, 36.9094], [31.09293, 36.9127], [31.45841, 36.78034], [31.54911, 36.72675], [31.76535, 36.63339], [31.95509, 36.5588], [32.15392, 36.42943], [32.28834, 36.25331], [32.447, 36.15668], [32.54992, 36.10009], [32.64244, 36.07807], [32.86494, 36.08953], [33.17953, 36.13483], [33.43638, 36.17631], [33.7604, 36.2393], [33.93862, 36.42468], [34.04747, 36.38871], [34.22039, 36.53017], [34.51526, 36.80999], [34.87454, 36.94694], [34.83948, 37.1529], [34.84711, 37.38368], [34.72745, 37.65057], [34.87934, 37.45732], [34.60829, 37.72365], [34.6844, 37.96591], [34.78202, 38.09138], [34.77884, 38.62657], [34.80465, 38.61935], [34.82238, 38.6397], [34.84138, 38.63853], [34.83244, 38.66356], [34.84049, 38.64204], [34.979, 38.66577], [35.49652, 38.79111], [36.03321, 39.08083], [36.46533, 39.39585], [36.57977, 39.63952], [36.52432, 39.9426], [36.48449, 40.19533], [36.63066, 40.35502], [36.92671, 40.58069], [36.99349, 40.62551], [36.99712, 40.6618], [37.00504, 40.71125], [37.00659, 40.81264], [37.07204, 40.8944], [37.17582, 40.99982], [37.24334, 41.10011], [37.64441, 40.99449], [38.11127, 40.95791], [38.45102, 40.91541], [38.83658, 41.00482], [39.31829, 41.0612], [39.70623, 41.00787], [39.96022, 40.95985], [40.35347, 41.00913], [40.82538, 41.16695], [41.27961, 41.3471], [41.63188, 41.37077], [41.73271, 41.31154], [41.83234, 41.18341], [41.85171, 41.18908], [41.85784, 41.18957], [41.85582, 41.1833], [41.938, 41.15306], [42.10267, 41.23784], [42.09226, 41.25725], [42.10231, 41.23951], [42.26246, 41.27254], [42.42093, 41.23667], [42.54013, 41.2001], [42.7001, 41.12156], [43.07641, 41.14303], [43.14748, 41.15954], [43.16184, 41.13508], [43.35861, 41.27005], [43.46949, 41.43133], [43.26143, 41.53186], [43.12461, 41.61454], [43.07446, 41.69503], [43.29744, 41.78795], [43.45431, 41.89942], [43.67468, 42.01116], [44.30838, 42.02], [44.77157, 41.81287], [44.80335, 41.69652], [44.80351, 41.76861], [44.79024, 41.70414], [44.73085, 41.86716], [44.72266, 42.15381], [44.68774, 42.30897], [44.52006, 42.42574], [44.47994, 42.47515], [44.49151, 42.54664], [44.63228, 42.69887], [44.63032, 42.89361], [44.65008, 43.01254], [44.682, 43.01512]]}}, {"type": "Feature", "properties": {"from": "Vladikavkaz", "to": "Kirguist\u00e1n", "mode": "tren", "km": 5546, "color": "#8ecae6", "dashed": 0, "cat": "done", "label": "<b>Vladikavkaz</b> to <b>Kirguist\u00e1n</b><br>train \u00b7 5546 km"}, "geometry": {"type": "LineString", "coordinates": [[44.6819, 43.0151], [44.7091, 43.0283], [44.7292, 43.0406], [44.5568, 43.1625], [44.549, 43.1772], [44.53817, 43.19245], [43.1496, 44.21], [43.0515, 44.249], [43.11821, 44.2151], [42.9815, 44.2778], [42.9851, 44.2926], [42.9779, 44.2849], [42.989, 44.29], [43.0153, 44.2721], [42.9881, 44.2747], [42.9971, 44.2737], [42.9917, 44.2764], [42.3332, 47.3229], [43.9784, 48.1641], [44.50701, 48.54926], [44.5798, 48.5404], [44.5688, 48.5446], [44.5908, 48.5225], [44.5688, 48.5445], [44.4509, 48.6227], [44.5468, 48.6928], [44.2392, 48.58566], [44.51522, 48.71416], [44.4161, 48.8204], [44.39383, 48.85033], [45.936, 51.5026], [46.0007, 51.5409], [46.15228, 51.49377], [55.57645, 54.68509], [55.75649, 54.72801], [55.8332, 54.6756], [56.022, 54.7298], [59.1154, 55.0581], [59.06278, 55.0492], [59.6859, 55.06485], [58.3162, 54.9134], [58.31, 54.9154], [59.5272, 55.0754], [59.9027, 55.0612], [59.6757, 55.1442], [61.4273, 55.1359], [67.0303, 55.3587], [67.052, 55.3101], [67.0415, 55.3337], [68.3926, 54.8781], [69.172, 54.8561], [69.1656, 54.8605], [69.1594, 54.8591], [69.1696, 54.8564], [69.4462, 54.5527], [69.4571, 54.4919], [69.45236, 54.44816], [69.47393, 54.43604], [70.9707, 51.9615], [72.904, 48.0729], [72.92293, 48.00438], [73.26152, 47.94132], [73.5468, 46.961], [73.6059, 46.1195], [73.9696, 45.1085], [73.7937, 44.2366], [73.7495, 44.0332], [73.7369, 44.0155], [73.7321, 43.851], [73.7602, 43.6002], [76.952, 43.3406], [76.9386, 43.274], [76.9398, 43.2686], [76.95419, 43.29035], [76.9701, 43.2801], [77.28296, 43.31882], [77.23505, 43.30417], [77.2832, 43.3188], [77.0523, 43.1622], [77.0809, 43.1261], [77.0651, 43.1467], [76.9569, 43.2432], [77.2824, 43.3181], [77.2899, 43.3146], [77.2829, 43.3084], [77.2832, 43.3189], [77.2884, 43.3151], [76.98292, 43.41442], [77.29356, 43.31292], [77.28493, 43.31876], [77.28303, 43.31431], [77.2832, 43.3188], [77.2843, 43.3078], [77.28323, 43.31907], [77.03109, 43.29618], [77.02057, 43.29335], [76.94718, 43.25501], [76.93463, 43.25569], [76.9404, 43.2617], [76.9473, 43.2619], [76.9519, 43.2593], [76.9544, 43.2634], [76.9566, 43.259], [77.28414, 43.30078], [77.2851, 43.3047], [77.2827, 43.3192], [77.2919, 43.3071], [77.2834, 43.3188], [77.2842, 43.3137], [77.2818, 43.3188], [77.2527, 43.2929], [77.2443, 43.3072], [77.2784, 43.3012], [77.2844, 43.3173], [77.18345, 43.28516], [77.0481, 43.3057], [76.91595, 43.24543], [76.9063, 43.2363], [76.8927, 43.2286], [76.87833, 43.23275], [76.8955, 43.2383], [76.9066, 43.2363], [76.8777, 43.237], [76.8581, 43.2444], [75.83088, 43.32536], [75.82516, 43.32523], [75.7904, 43.3166], [75.4432, 43.354], [74.707, 43.0263], [74.6669, 42.9765], [74.6368, 42.8752], [74.60088, 42.84812], [74.60597, 42.85229], [74.59944, 42.8525], [74.6172, 42.8692], [74.6173, 42.8803], [74.7034, 43.0249], [74.9026, 43.3054], [75.7076, 43.3233], [76.8536, 43.24541], [77.28309, 43.31891], [77.28661, 43.3001], [77.2834, 43.3188], [77.2851, 43.3002], [77.0283, 43.3184], [76.98969, 43.34381], [76.9244, 43.2692], [76.9479, 43.2704], [76.9628, 43.2651], [77.2832, 43.3187], [77.0053, 43.2894], [76.9557, 43.2585], [77.2825, 43.3181], [77.2924, 43.3144], [77.0105, 43.348]]}}, {"type": "Feature", "properties": {"from": "Calais", "to": "Boulogne-sur-Mer", "mode": "bici", "km": 40, "color": "#f4a261", "dashed": 0, "cat": "done", "label": "<b>Calais</b> to <b>Boulogne-sur-Mer</b><br>bike \u00b7 WWII bunkers"}, "geometry": {"type": "LineString", "coordinates": [[1.851, 50.957], [1.72, 50.87], [1.61, 50.727]]}}, {"type": "Feature", "properties": {"from": "Ajaccio", "to": "Bussaglia", "mode": "kayak", "km": 70, "color": "#2a9d8f", "dashed": 0, "cat": "done", "label": "<b>Ajaccio</b> to <b>Bussaglia</b><br>kayak \u00b7 N Corsica"}, "geometry": {"type": "LineString", "coordinates": [[8.738, 41.919], [8.66, 42.05], [8.6, 42.18], [8.63, 42.27]]}}, {"type": "Feature", "properties": {"name": "Circumnavigate Crete", "mode": "kayak", "color": "#ff3b30", "dashed": 1, "cat": "dream", "label": "<b>Circumnavigate Crete</b><br>kayak \u00b7 a dream"}, "geometry": {"type": "LineString", "coordinates": [[23.51448, 35.30588], [23.52416, 35.29402], [23.51563, 35.29009], [23.53299, 35.28597], [23.54022, 35.27072], [23.57903, 35.26109], [23.5743, 35.24229], [23.59062, 35.23109], [23.59638, 35.23655], [23.61709, 35.22935], [23.63495, 35.23378], [23.63619, 35.22846], [23.64086, 35.23534], [23.66354, 35.23866], [23.67833, 35.23129], [23.67753, 35.22264], [23.69717, 35.23842], [23.73088, 35.24047], [23.75802, 35.23844], [23.76652, 35.22853], [23.82688, 35.24947], [23.86696, 35.23558], [23.88429, 35.23851], [23.92343, 35.2209], [23.95472, 35.22951], [23.99116, 35.22885], [24.0184, 35.20042], [24.04301, 35.1937], [24.0676, 35.20049], [24.07491, 35.19203], [24.08518, 35.20262], [24.10213, 35.19778], [24.12788, 35.20246], [24.1545, 35.19103], [24.19786, 35.20097], [24.23103, 35.17996], [24.24937, 35.18324], [24.28397, 35.17466], [24.32344, 35.1895], [24.35198, 35.18193], [24.38116, 35.19474], [24.39985, 35.18409], [24.39184, 35.17242], [24.41728, 35.1737], [24.42089, 35.16431], [24.45701, 35.14903], [24.47721, 35.15336], [24.51997, 35.14355], [24.5529, 35.11561], [24.5581, 35.10071], [24.57236, 35.10535], [24.58943, 35.09706], [24.72295, 35.09258], [24.74646, 35.07158], [24.7601, 35.01574], [24.74351, 34.99048], [24.75005, 34.98275], [24.74462, 34.96424], [24.75249, 34.95379], [24.74748, 34.95055], [24.75478, 34.95055], [24.74523, 34.93714], [24.73323, 34.93377], [24.73355, 34.92204], [24.7562, 34.92131], [24.77034, 34.93006], [24.77431, 34.92225], [24.79322, 34.92351], [24.81105, 34.93707], [24.83775, 34.94101], [24.91947, 34.92563], [24.95109, 34.9336], [24.96372, 34.9244], [24.97423, 34.9338], [25.01686, 34.92912], [25.01947, 34.936], [25.02828, 34.93264], [25.04434, 34.94292], [25.05429, 34.9373], [25.08904, 34.9392], [25.09535, 34.93215], [25.13731, 34.95357], [25.18421, 34.95447], [25.19505, 34.94631], [25.25613, 34.96111], [25.2875, 34.98573], [25.32949, 34.98206], [25.37584, 34.99883], [25.41702, 34.98665], [25.4562, 34.99131], [25.50197, 34.98203], [25.52426, 34.99088], [25.54668, 34.98916], [25.59509, 35.00705], [25.66169, 35.00448], [25.68679, 35.0143], [25.73652, 35.00224], [25.74638, 35.00995], [25.77265, 34.99967], [25.81453, 34.99957], [25.84313, 35.01485], [25.8985, 35.02864], [25.96126, 35.03129], [25.97706, 35.03924], [25.99626, 35.03127], [26.00131, 35.01983], [26.01558, 35.02151], [26.02672, 35.01352], [26.03526, 35.01958], [26.08661, 35.01865], [26.09736, 35.00654], [26.09447, 34.99737], [26.11067, 34.99524], [26.13895, 35.00051], [26.15817, 35.01566], [26.19384, 35.01536], [26.19543, 35.02275], [26.20887, 35.022], [26.21662, 35.03532], [26.23135, 35.03377], [26.24605, 35.06461], [26.27173, 35.08817], [26.2643, 35.09999], [26.28054, 35.1115], [26.28518, 35.13557], [26.27652, 35.14564], [26.27961, 35.16704], [26.31115, 35.17523], [26.31897, 35.19377], [26.31187, 35.19778], [26.30114, 35.18709], [26.27847, 35.19561], [26.27931, 35.2025], [26.26795, 35.21051], [26.27754, 35.22311], [26.26298, 35.26478], [26.28773, 35.27553], [26.29077, 35.28934], [26.29662, 35.28666], [26.29253, 35.29184], [26.30766, 35.29412], [26.30208, 35.30246], [26.31464, 35.30657], [26.3105, 35.31741], [26.28216, 35.3104], [26.301, 35.30107], [26.27372, 35.29515], [26.28721, 35.29052], [26.28677, 35.28486], [26.25886, 35.27958], [26.25449, 35.27168], [26.24422, 35.28264], [26.23323, 35.27837], [26.23694, 35.26892], [26.2216, 35.26629], [26.225, 35.24988], [26.21499, 35.23823], [26.20397, 35.24141], [26.2084, 35.23593], [26.19977, 35.22837], [26.18134, 35.2249], [26.18673, 35.21275], [26.16865, 35.2013], [26.13541, 35.19554], [26.11429, 35.20197], [26.10681, 35.20856], [26.11409, 35.211], [26.11739, 35.22445], [26.1105, 35.22834], [26.08438, 35.21683], [26.06282, 35.22439], [26.05923, 35.23008], [26.06574, 35.23635], [26.05001, 35.22435], [26.02574, 35.22955], [26.00471, 35.21341], [26.00675, 35.20545], [25.99779, 35.19879], [25.97608, 35.19483], [25.96303, 35.20071], [25.94622, 35.18112], [25.91753, 35.17914], [25.89607, 35.18773], [25.89383, 35.1706], [25.86359, 35.15183], [25.8579, 35.1596], [25.8481, 35.1565], [25.84242, 35.13812], [25.81579, 35.11089], [25.80549, 35.11], [25.76609, 35.12273], [25.7602, 35.13041], [25.74532, 35.12543], [25.74108, 35.13231], [25.72726, 35.1297], [25.7294, 35.14909], [25.72113, 35.14741], [25.72331, 35.15465], [25.7094, 35.17544], [25.72299, 35.18937], [25.71281, 35.19774], [25.71533, 35.20522], [25.7199, 35.20154], [25.71376, 35.21977], [25.7401, 35.23217], [25.73107, 35.24485], [25.73552, 35.2568], [25.72167, 35.26246], [25.73042, 35.28996], [25.72683, 35.30312], [25.76323, 35.32004], [25.77261, 35.34135], [25.68866, 35.3361], [25.661, 35.34804], [25.58949, 35.33231], [25.57195, 35.31979], [25.54628, 35.32164], [25.48762, 35.29621], [25.4395, 35.29213], [25.39286, 35.31729], [25.38595, 35.33832], [25.23487, 35.33042], [25.19422, 35.33293], [25.18501, 35.3454], [25.15283, 35.34861], [25.13452, 35.34313], [25.15605, 35.35226], [25.11115, 35.33888], [25.05319, 35.34187], [25.04357, 35.35014], [25.03716, 35.37276], [25.04092, 35.3886], [25.04937, 35.39246], [25.04458, 35.40502], [25.02691, 35.39903], [25.01844, 35.40534], [25.01888, 35.41984], [25.0011, 35.42128], [24.98971, 35.41328], [24.9735, 35.42285], [24.97312, 35.432], [24.96474, 35.40789], [24.95562, 35.4024], [24.92721, 35.40876], [24.92029, 35.4026], [24.88568, 35.42203], [24.87571, 35.42059], [24.8729, 35.40923], [24.83414, 35.40597], [24.82618, 35.41565], [24.81946, 35.40782], [24.79551, 35.41285], [24.78785, 35.40596], [24.783, 35.41985], [24.76769, 35.41601], [24.69917, 35.42731], [24.69299, 35.41865], [24.64903, 35.42024], [24.61193, 35.39243], [24.55182, 35.37567], [24.48901, 35.36719], [24.4717, 35.37397], [24.45717, 35.36432], [24.42034, 35.3697], [24.40765, 35.35959], [24.37547, 35.362], [24.35532, 35.35127], [24.28014, 35.35647], [24.25965, 35.36405], [24.26314, 35.42448], [24.25395, 35.43039], [24.25817, 35.45242], [24.24318, 35.47557], [24.22146, 35.45976], [24.20807, 35.46178], [24.20261, 35.4494], [24.18798, 35.44924], [24.1512, 35.47188], [24.11918, 35.47067], [24.07826, 35.49221], [24.05976, 35.49252], [24.081, 35.50907], [24.10747, 35.50818], [24.15294, 35.49366], [24.18184, 35.50299], [24.1853, 35.52035], [24.20195, 35.53897], [24.17483, 35.58713], [24.12279, 35.602], [24.09969, 35.59784], [24.09767, 35.58972], [24.07804, 35.59278], [24.06952, 35.58269], [24.08648, 35.55356], [24.0663, 35.54743], [24.05831, 35.55561], [24.06264, 35.54805], [24.05199, 35.55222], [24.04795, 35.524], [24.03182, 35.51657], [24.0184, 35.52024], [23.99302, 35.51119], [23.98878, 35.5185], [23.97305, 35.51163], [23.93013, 35.52231], [23.8417, 35.52714], [23.83205, 35.53508], [23.77875, 35.54645], [23.77758, 35.59968], [23.76671, 35.6334], [23.77223, 35.63544], [23.76145, 35.65279], [23.7734, 35.66879], [23.73743, 35.69578], [23.70905, 35.65891], [23.70597, 35.64022], [23.71632, 35.61865], [23.70845, 35.59628], [23.72429, 35.57212], [23.72921, 35.54673], [23.71799, 35.50721], [23.65525, 35.49822], [23.63958, 35.50555], [23.63847, 35.51917], [23.6287, 35.51312], [23.61143, 35.52075], [23.61281, 35.56217], [23.60424, 35.56938], [23.6015, 35.59184], [23.6103, 35.60249], [23.59462, 35.62666], [23.59982, 35.61105], [23.5912, 35.58193], [23.58115, 35.57669], [23.58637, 35.56346], [23.5741, 35.54908], [23.5671, 35.52529], [23.57294, 35.5155], [23.56461, 35.5104], [23.57676, 35.50408], [23.57903, 35.48571], [23.55385, 35.46478], [23.55696, 35.44942], [23.57007, 35.44486], [23.56794, 35.42461], [23.54587, 35.41165], [23.5429, 35.40446], [23.55048, 35.39485], [23.53061, 35.38154], [23.53783, 35.37748], [23.52954, 35.36154], [23.53774, 35.34986], [23.52838, 35.33911], [23.54706, 35.33029], [23.54839, 35.32255], [23.52995, 35.31827], [23.53275, 35.31127], [23.52471, 35.31353], [23.52069, 35.30235], [23.51448, 35.30588]]}}, {"type": "Feature", "properties": {"name": "Circumnavigate Corsica", "mode": "kayak", "color": "#ff3b30", "dashed": 1, "cat": "dream", "label": "<b>Circumnavigate Corsica</b><br>kayak \u00b7 a dream"}, "geometry": {"type": "LineString", "coordinates": [[8.53989, 42.23706], [8.55391, 42.22677], [8.56075, 42.23245], [8.57307, 42.22924], [8.56692, 42.21947], [8.57833, 42.21428], [8.56852, 42.21322], [8.56642, 42.20542], [8.58211, 42.20603], [8.57775, 42.18929], [8.58686, 42.18101], [8.56124, 42.17147], [8.59358, 42.16807], [8.55828, 42.14584], [8.58613, 42.15141], [8.5941, 42.14322], [8.58021, 42.12902], [8.6124, 42.13444], [8.62408, 42.12253], [8.6475, 42.12104], [8.65967, 42.10087], [8.68046, 42.10519], [8.68944, 42.11506], [8.69982, 42.11271], [8.7105, 42.09604], [8.70284, 42.08598], [8.7145, 42.08243], [8.71918, 42.06382], [8.73844, 42.06508], [8.7474, 42.05017], [8.74147, 42.04097], [8.7219, 42.04266], [8.72674, 42.03478], [8.71668, 42.02962], [8.69068, 42.02886], [8.65617, 42.00941], [8.65823, 41.99259], [8.66993, 41.98763], [8.65629, 41.97258], [8.59223, 41.96448], [8.59766, 41.95258], [8.60693, 41.9519], [8.60735, 41.94148], [8.62337, 41.9351], [8.60909, 41.90999], [8.61566, 41.90292], [8.60744, 41.89482], [8.64207, 41.91009], [8.676, 41.9044], [8.71947, 41.90826], [8.7437, 41.91795], [8.74045, 41.9309], [8.74715, 41.93354], [8.76366, 41.92017], [8.77046, 41.92766], [8.78188, 41.92379], [8.8033, 41.89531], [8.77833, 41.88284], [8.79022, 41.86696], [8.78839, 41.85053], [8.75089, 41.84519], [8.78401, 41.83236], [8.77408, 41.82469], [8.77159, 41.81118], [8.74855, 41.81102], [8.73822, 41.7971], [8.71201, 41.80175], [8.70907, 41.79638], [8.73295, 41.78032], [8.72909, 41.77442], [8.68461, 41.747], [8.66124, 41.74997], [8.65882, 41.74045], [8.70468, 41.73953], [8.7072, 41.72173], [8.77526, 41.74155], [8.78474, 41.73216], [8.77112, 41.71165], [8.78828, 41.70846], [8.78271, 41.69904], [8.81214, 41.71436], [8.84209, 41.69717], [8.91615, 41.68717], [8.90894, 41.67722], [8.88203, 41.67125], [8.87188, 41.64668], [8.85141, 41.64799], [8.8204, 41.62962], [8.80476, 41.64205], [8.80384, 41.63407], [8.79425, 41.63278], [8.79487, 41.62349], [8.78559, 41.6182], [8.79123, 41.61541], [8.78494, 41.60111], [8.78977, 41.59669], [8.77431, 41.59268], [8.80417, 41.5754], [8.78943, 41.56311], [8.78246, 41.56688], [8.78692, 41.55613], [8.81669, 41.55537], [8.81307, 41.54851], [8.84496, 41.54697], [8.84677, 41.54027], [8.85328, 41.54691], [8.85577, 41.53425], [8.84223, 41.51862], [8.87633, 41.52439], [8.89064, 41.51605], [8.88414, 41.50477], [8.9163, 41.50628], [8.92051, 41.48918], [8.93286, 41.49584], [8.93915, 41.48889], [8.96105, 41.49253], [8.96492, 41.48283], [8.97328, 41.48502], [8.98267, 41.47382], [8.99541, 41.48558], [9.0036, 41.47479], [9.01784, 41.47817], [9.01474, 41.47081], [9.02479, 41.46143], [9.03928, 41.4693], [9.03909, 41.45711], [9.07869, 41.47824], [9.0674, 41.46558], [9.06984, 41.44454], [9.0826, 41.44145], [9.09414, 41.44991], [9.09835, 41.44259], [9.12229, 41.44134], [9.10463, 41.42711], [9.10729, 41.41831], [9.09489, 41.41187], [9.09091, 41.40174], [9.09604, 41.39186], [9.13289, 41.39979], [9.12673, 41.39418], [9.14441, 41.38671], [9.1648, 41.38966], [9.14832, 41.38667], [9.16944, 41.38445], [9.18033, 41.36577], [9.22021, 41.36644], [9.22056, 41.37545], [9.26566, 41.42493], [9.25812, 41.42839], [9.22007, 41.40511], [9.21971, 41.41339], [9.20961, 41.41331], [9.22675, 41.41739], [9.22316, 41.44178], [9.24374, 41.44674], [9.26584, 41.46605], [9.27711, 41.46346], [9.26701, 41.47073], [9.28771, 41.48398], [9.28577, 41.49904], [9.2681, 41.50043], [9.28452, 41.51741], [9.27328, 41.52254], [9.27301, 41.53003], [9.28724, 41.5295], [9.3103, 41.55003], [9.34316, 41.55914], [9.34991, 41.56574], [9.3477, 41.57538], [9.36932, 41.59395], [9.34047, 41.59416], [9.33395, 41.60324], [9.31864, 41.60508], [9.29517, 41.58374], [9.28135, 41.59709], [9.28771, 41.60914], [9.30625, 41.61517], [9.30779, 41.62848], [9.32526, 41.61902], [9.32006, 41.61501], [9.33552, 41.62179], [9.35462, 41.6167], [9.35424, 41.62735], [9.34601, 41.6311], [9.34894, 41.63821], [9.36784, 41.63562], [9.37726, 41.64851], [9.38598, 41.64536], [9.38116, 41.65087], [9.3886, 41.65689], [9.38118, 41.66407], [9.38806, 41.67042], [9.3766, 41.67003], [9.37244, 41.67913], [9.40064, 41.69305], [9.40653, 41.71322], [9.40142, 41.71753], [9.40798, 41.76629], [9.39564, 41.77536], [9.39999, 41.78945], [9.39433, 41.79764], [9.4061, 41.81761], [9.40024, 41.85106], [9.40506, 41.85769], [9.3969, 41.87418], [9.41354, 41.91496], [9.41401, 41.95499], [9.5491, 42.10402], [9.55536, 42.12701], [9.55903, 42.1968], [9.5524, 42.23172], [9.56001, 42.28213], [9.53226, 42.37034], [9.54346, 42.42881], [9.54149, 42.45958], [9.52996, 42.49138], [9.53276, 42.54808], [9.51496, 42.58485], [9.46034, 42.64275], [9.44645, 42.67465], [9.44999, 42.69612], [9.45765, 42.70284], [9.46558, 42.75798], [9.49292, 42.80629], [9.47998, 42.83763], [9.48256, 42.86434], [9.47244, 42.8751], [9.47819, 42.87948], [9.46912, 42.9051], [9.47273, 42.92366], [9.45147, 42.9624], [9.46358, 42.98658], [9.42204, 43.0117], [9.40806, 43.00553], [9.35745, 43.0071], [9.34025, 42.99401], [9.34209, 42.97914], [9.35095, 42.97291], [9.34634, 42.95382], [9.35943, 42.94504], [9.34915, 42.92941], [9.36171, 42.92461], [9.32205, 42.90015], [9.32995, 42.87223], [9.3405, 42.86592], [9.30952, 42.83348], [9.3427, 42.79748], [9.33761, 42.76397], [9.34534, 42.73669], [9.32233, 42.71677], [9.32302, 42.69708], [9.29688, 42.68103], [9.30239, 42.67814], [9.28551, 42.67555], [9.27031, 42.70069], [9.25366, 42.70503], [9.25705, 42.71814], [9.23255, 42.72048], [9.22213, 42.73551], [9.19884, 42.7245], [9.16732, 42.73675], [9.12364, 42.7316], [9.09986, 42.71512], [9.08607, 42.71535], [9.07055, 42.69237], [9.05764, 42.69646], [9.05989, 42.68234], [9.05359, 42.67787], [9.05925, 42.66026], [9.02874, 42.65297], [9.01546, 42.64121], [8.95468, 42.63363], [8.92266, 42.6395], [8.90568, 42.62739], [8.8803, 42.62913], [8.88127, 42.6209], [8.86724, 42.60815], [8.85185, 42.61245], [8.83421, 42.60167], [8.80587, 42.60405], [8.80129, 42.60088], [8.81056, 42.59825], [8.81132, 42.58976], [8.79813, 42.58302], [8.80529, 42.57105], [8.78363, 42.55698], [8.76175, 42.55787], [8.75613, 42.56387], [8.7629, 42.56942], [8.75488, 42.57168], [8.72709, 42.56156], [8.72712, 42.58409], [8.70922, 42.57676], [8.7064, 42.56952], [8.71855, 42.57073], [8.71561, 42.56044], [8.72302, 42.55679], [8.71647, 42.55035], [8.72294, 42.5453], [8.7102, 42.5355], [8.72038, 42.52521], [8.69973, 42.5271], [8.68307, 42.51492], [8.66681, 42.51607], [8.66514, 42.49277], [8.6494, 42.47461], [8.67513, 42.4765], [8.67991, 42.46864], [8.66442, 42.45638], [8.66883, 42.4451], [8.64836, 42.44257], [8.6643, 42.43456], [8.65686, 42.41709], [8.64693, 42.4133], [8.62266, 42.42211], [8.60608, 42.41658], [8.60886, 42.41167], [8.60109, 42.40913], [8.6121, 42.40348], [8.60215, 42.39749], [8.60901, 42.38686], [8.5768, 42.3836], [8.57821, 42.37439], [8.56928, 42.36983], [8.55369, 42.37144], [8.54778, 42.37966], [8.54316, 42.36892], [8.55801, 42.36067], [8.55124, 42.34674], [8.55918, 42.3399], [8.55325, 42.33322], [8.56506, 42.33338], [8.59119, 42.35322], [8.61682, 42.34897], [8.61796, 42.34066], [8.62884, 42.33988], [8.62828, 42.33224], [8.59836, 42.31949], [8.60468, 42.3058], [8.6259, 42.31259], [8.63926, 42.29943], [8.66044, 42.30252], [8.67493, 42.29389], [8.67398, 42.28383], [8.68704, 42.28212], [8.69533, 42.2664], [8.63886, 42.2525], [8.61675, 42.2554], [8.55859, 42.23555], [8.53989, 42.23706]]}}, {"type": "Feature", "properties": {"name": "Circumnavigate Cyprus", "mode": "kayak", "color": "#ff3b30", "dashed": 1, "cat": "dream", "label": "<b>Circumnavigate Cyprus</b><br>kayak \u00b7 a dream"}, "geometry": {"type": "LineString", "coordinates": [[32.59041, 35.17834], [32.56641, 35.16924], [32.55142, 35.17575], [32.5398, 35.15296], [32.51864, 35.13811], [32.48764, 35.08354], [32.45611, 35.05846], [32.42803, 35.04467], [32.40001, 35.03951], [32.36109, 35.04687], [32.30484, 35.08334], [32.30368, 35.09142], [32.28845, 35.10489], [32.27587, 35.10008], [32.26921, 35.07034], [32.27522, 35.03762], [32.29074, 35.0211], [32.28918, 35.01671], [32.29573, 35.01835], [32.31378, 34.99594], [32.30895, 34.97266], [32.3134, 34.96275], [32.30152, 34.95609], [32.30236, 34.94992], [32.31256, 34.94785], [32.3253, 34.926], [32.32526, 34.90951], [32.31603, 34.8994], [32.34184, 34.87317], [32.34758, 34.85693], [32.36049, 34.85784], [32.3614, 34.85177], [32.36811, 34.85484], [32.36923, 34.84744], [32.38002, 34.8481], [32.3882, 34.84051], [32.3932, 34.79015], [32.40113, 34.78544], [32.4066, 34.76627], [32.3998, 34.75491], [32.41597, 34.75544], [32.43387, 34.7354], [32.45005, 34.73387], [32.49436, 34.70285], [32.51042, 34.70826], [32.53033, 34.69772], [32.55504, 34.69796], [32.5924, 34.68227], [32.61249, 34.66787], [32.6786, 34.65173], [32.70332, 34.64024], [32.71663, 34.64156], [32.72314, 34.64977], [32.74474, 34.64633], [32.76039, 34.657], [32.774, 34.65643], [32.79112, 34.66429], [32.82011, 34.66177], [32.82804, 34.66719], [32.84292, 34.663], [32.8493, 34.67033], [32.87477, 34.66695], [32.90932, 34.6388], [32.92357, 34.61865], [32.93797, 34.58937], [32.9406, 34.57469], [32.93312, 34.56592], [32.94742, 34.57047], [32.96411, 34.56743], [32.97361, 34.57331], [33.02864, 34.56253], [33.03636, 34.56759], [33.00867, 34.59364], [33.00591, 34.61894], [33.0108, 34.6413], [33.03286, 34.65039], [33.01901, 34.64481], [33.00689, 34.64791], [33.0161, 34.64786], [33.01647, 34.65486], [33.02439, 34.65094], [33.02521, 34.66183], [33.03788, 34.66981], [33.04324, 34.66626], [33.03856, 34.66451], [33.04311, 34.66525], [33.04142, 34.67065], [33.06372, 34.68575], [33.14896, 34.71271], [33.19531, 34.70591], [33.25944, 34.70519], [33.27043, 34.70777], [33.27466, 34.71731], [33.29143, 34.72463], [33.31886, 34.71504], [33.31428, 34.71913], [33.32609, 34.71911], [33.34593, 34.73076], [33.36988, 34.73094], [33.39329, 34.74706], [33.41281, 34.74986], [33.42915, 34.76407], [33.47102, 34.77605], [33.49545, 34.77713], [33.50022, 34.78682], [33.55138, 34.81916], [33.58171, 34.82068], [33.60275, 34.81583], [33.60828, 34.8345], [33.63951, 34.86599], [33.63512, 34.87797], [33.64057, 34.89931], [33.63802, 34.91038], [33.64322, 34.91818], [33.63953, 34.91855], [33.64842, 34.9266], [33.64018, 34.9271], [33.64554, 34.92739], [33.64124, 34.933], [33.64596, 34.94455], [33.66438, 34.9649], [33.6867, 34.97531], [33.71734, 34.98055], [33.7303, 34.97801], [33.73343, 34.98264], [33.74598, 34.97814], [33.75254, 34.98203], [33.77603, 34.98038], [33.83012, 34.9631], [33.85848, 34.9426], [33.89196, 34.95464], [33.90233, 34.96605], [33.89929, 34.97137], [33.93405, 34.97889], [33.94641, 34.97648], [33.94212, 34.97856], [33.95646, 34.97991], [33.95824, 34.98707], [33.97085, 34.98827], [33.98197, 34.98235], [34.0156, 34.98336], [34.02905, 34.97434], [34.05447, 34.9684], [34.06617, 34.95895], [34.07554, 34.96475], [34.08566, 34.9564], [34.08607, 34.96562], [34.07793, 34.96636], [34.07663, 34.97614], [34.0701, 34.98164], [34.07876, 34.98636], [34.06336, 35.00303], [34.06464, 35.01246], [34.05446, 35.01625], [34.03871, 35.04062], [33.98808, 35.07623], [33.96164, 35.107], [33.95821, 35.12131], [33.93715, 35.13249], [33.91973, 35.16004], [33.91189, 35.16313], [33.89966, 35.20392], [33.90656, 35.25732], [33.92862, 35.2797], [33.94239, 35.30447], [33.96695, 35.32181], [33.99799, 35.32733], [34.01162, 35.32031], [34.06619, 35.32882], [34.07524, 35.33985], [34.08084, 35.36812], [34.13421, 35.41594], [34.18339, 35.44405], [34.30035, 35.4893], [34.35784, 35.535], [34.38061, 35.54078], [34.39875, 35.55522], [34.40939, 35.55717], [34.41681, 35.58182], [34.42501, 35.58348], [34.42431, 35.59203], [34.4374, 35.60181], [34.46715, 35.61785], [34.4957, 35.62192], [34.51346, 35.63366], [34.56268, 35.64129], [34.57556, 35.65724], [34.57216, 35.66612], [34.57835, 35.67356], [34.57693, 35.68231], [34.58851, 35.69516], [34.54527, 35.68784], [34.52482, 35.6708], [34.50487, 35.67584], [34.50479, 35.66871], [34.49071, 35.65863], [34.47857, 35.65933], [34.46228, 35.65253], [34.44009, 35.65565], [34.41391, 35.6426], [34.40846, 35.63519], [34.38487, 35.63609], [34.36711, 35.62526], [34.34656, 35.62305], [34.34589, 35.61111], [34.33868, 35.60335], [34.3317, 35.60017], [34.32643, 35.60413], [34.31993, 35.59161], [34.29011, 35.576], [34.27959, 35.5798], [34.26231, 35.57008], [34.24977, 35.57116], [34.24303, 35.56185], [34.2292, 35.55692], [34.221, 35.56079], [34.2144, 35.55566], [34.20907, 35.56194], [34.20369, 35.55669], [34.19121, 35.55708], [34.17716, 35.56229], [34.16926, 35.5454], [34.15453, 35.53997], [34.12623, 35.50523], [34.09684, 35.49543], [34.07987, 35.49558], [34.05895, 35.48026], [34.05298, 35.48169], [34.04818, 35.47428], [34.0277, 35.47022], [34.0065, 35.45729], [33.98826, 35.455], [33.97747, 35.44584], [33.9517, 35.44463], [33.93683, 35.43511], [33.91957, 35.4355], [33.91135, 35.42817], [33.88946, 35.42774], [33.87941, 35.42013], [33.84988, 35.41276], [33.77179, 35.41405], [33.7077, 35.38808], [33.68546, 35.36958], [33.65711, 35.3638], [33.64639, 35.35691], [33.61319, 35.35485], [33.60817, 35.36082], [33.56737, 35.34667], [33.53318, 35.34632], [33.48114, 35.3322], [33.45943, 35.33719], [33.4198, 35.33177], [33.37793, 35.33845], [33.37084, 35.33384], [33.34822, 35.33487], [33.33483, 35.33806], [33.33098, 35.34253], [33.33766, 35.34195], [33.3329, 35.34505], [33.32638, 35.34021], [33.30856, 35.34066], [33.29514, 35.34423], [33.29189, 35.35056], [33.27825, 35.34454], [33.25709, 35.35057], [33.24196, 35.34468], [33.21579, 35.35667], [33.19639, 35.35891], [33.18317, 35.35042], [33.17062, 35.35128], [33.1327, 35.36421], [33.11851, 35.36347], [33.11398, 35.36843], [33.09722, 35.35381], [33.06375, 35.35521], [33.03122, 35.36805], [32.99387, 35.36813], [32.96786, 35.38724], [32.94665, 35.39127], [32.92078, 35.4041], [32.92214, 35.35835], [32.92502, 35.34984], [32.93477, 35.34417], [32.93789, 35.28106], [32.91538, 35.20481], [32.89885, 35.17641], [32.8852, 35.16443], [32.82615, 35.1407], [32.79336, 35.15228], [32.7856, 35.16073], [32.74165, 35.17456], [32.73854, 35.17994], [32.6925, 35.18407], [32.67267, 35.18837], [32.66821, 35.19401], [32.64233, 35.19514], [32.6339, 35.1886], [32.62394, 35.19302], [32.61136, 35.18031], [32.59041, 35.17834]]}}, {"type": "Feature", "properties": {"name": "Down the Nile, Lake Victoria to the Delta", "mode": "kayak", "color": "#ff3b30", "dashed": 1, "cat": "dream", "label": "<b>Down the Nile, Lake Victoria to the Delta</b><br>kayak \u00b7 a dream"}, "geometry": {"type": "LineString", "coordinates": [[33.2, 0.43], [32.9, 1.5], [32.2, 1.72], [31.68, 2.28], [31.82, 3.6], [31.58, 4.85], [31.66, 9.53], [32.2, 11.1], [32.66, 13.17], [32.53, 15.5], [33.98, 17.7], [33.3, 18.9], [31.35, 21.8], [32.9, 24.09], [32.64, 25.7], [31.18, 27.18], [31.24, 30.04], [30.42, 31.4]]}}, {"type": "Feature", "properties": {"name": "South America to Alaska, the Panamericana", "mode": "moto", "color": "#ff3b30", "dashed": 1, "cat": "dream", "label": "<b>South America to Alaska, the Panamericana</b><br>motorbike + sidecar, with Fluffo \u00b7 a dream"}, "geometry": {"type": "LineString", "coordinates": [[-68.31, -54.8], [-70.92, -53.16], [-72.94, -41.47], [-73.1, -39.82], [-72.6, -38.74], [-71.6, -35.43], [-70.65, -33.45], [-70.4, -23.65], [-70.31, -18.48], [-71.53, -16.4], [-77.03, -12.05], [-79.03, -8.11], [-80.63, -5.19], [-78.52, -0.23], [-77.28, 1.21], [-74.08, 4.6], [-75.56, 6.25], [-76.65, 7.88], [-79.53, 8.98], [-82.43, 9.4], [-84.09, 9.93], [-86.25, 12.13], [-90.51, 14.63], [-92.26, 15.3], [-95.2, 16.25], [-96.72, 17.07], [-99.13, 19.43], [-103.35, 20.67], [-105.9, 22.77], [-108.98, 25.8], [-110.95, 29.07], [-110.97, 32.22], [-112.07, 33.45], [-115.14, 36.17], [-111.89, 40.76], [-116.2, 43.62], [-122.33, 47.61], [-123.11, 49.28], [-122.75, 53.92], [-127.65, 54.78], [-135.05, 60.72], [-143.73, 62.11], [-147.72, 64.84], [-148.83, 66.9], [-148.46, 70.2]]}}, {"type": "Feature", "properties": {"name": "Patagonian fjords to Ushuaia", "mode": "kayak", "color": "#ff3b30", "dashed": 1, "cat": "dream", "label": "<b>Patagonian fjords to Ushuaia</b><br>kayak \u00b7 a dream"}, "geometry": {"type": "LineString", "coordinates": [[-73.65, -49.13], [-74.35, -49.9], [-74.1, -50.65], [-73.75, -51.35], [-72.51, -51.73], [-72.3, -52.4], [-71.2, -52.95], [-70.92, -53.16], [-69.95, -54.3], [-68.6, -54.8], [-67.62, -54.93], [-68.31, -54.8]]}}, {"type": "Feature", "properties": {"name": "India, north to south", "mode": "moped", "color": "#ff3b30", "dashed": 1, "cat": "dream", "label": "<b>India, north to south</b><br>moped \u00b7 a dream"}, "geometry": {"type": "LineString", "coordinates": [[77.58, 34.15], [77.19, 32.24], [77.17, 31.1], [78.27, 30.09], [77.21, 28.61], [78.01, 27.18], [75.79, 26.91], [74.64, 25.35], [73.71, 24.58], [72.57, 23.02], [72.88, 19.08], [73.86, 18.52], [73.83, 15.3], [76.46, 15.34], [77.59, 12.97], [76.64, 12.31], [76.69, 11.41], [76.27, 9.93], [76.34, 9.49], [76.94, 8.49], [77.54, 8.08]]}}, {"type": "Feature", "properties": {"name": "Around Mallorca \u00b7 14 stages \u00b7 September", "color": "#ffffff", "dashed": 0, "cat": "plan", "label": "<b>Around Mallorca \u00b7 14 stages \u00b7 September</b>"}, "geometry": {"type": "LineString", "coordinates": [[2.34473, 39.58717], [2.35452, 39.57671], [2.3465, 39.56468], [2.35532, 39.56316], [2.35412, 39.55749], [2.36623, 39.55508], [2.37219, 39.54424], [2.39055, 39.54621], [2.36392, 39.53145], [2.37705, 39.53752], [2.38813, 39.53395], [2.38746, 39.52077], [2.40453, 39.52675], [2.40533, 39.53644], [2.4136, 39.5391], [2.42381, 39.5369], [2.41944, 39.52293], [2.45234, 39.53668], [2.46681, 39.51895], [2.47959, 39.51812], [2.4562, 39.50472], [2.468, 39.49027], [2.47889, 39.49222], [2.47637, 39.4833], [2.48209, 39.47606], [2.47609, 39.46626], [2.49051, 39.47291], [2.50117, 39.46115], [2.52182, 39.45671], [2.52008, 39.47501], [2.52599, 39.47439], [2.5366, 39.4879], [2.53477, 39.50621], [2.54726, 39.51116], [2.53917, 39.5132], [2.53991, 39.52362], [2.56157, 39.53201], [2.59041, 39.53102], [2.60054, 39.55107], [2.63245, 39.54513], [2.63944, 39.55262], [2.62966, 39.54568], [2.6199, 39.54957], [2.63645, 39.55508], [2.62449, 39.55457], [2.63189, 39.56815], [2.64413, 39.56707], [2.63422, 39.55901], [2.6454, 39.56565], [2.66826, 39.5587], [2.66942, 39.56265], [2.71117, 39.53359], [2.72688, 39.53076], [2.7492, 39.50947], [2.74998, 39.5004], [2.72187, 39.4761], [2.74721, 39.44148], [2.73941, 39.41605], [2.74191, 39.40634], [2.78739, 39.36308], [2.80605, 39.36718], [2.82878, 39.35615], [2.84431, 39.36592], [2.88178, 39.3662], [2.91364, 39.35228], [2.91422, 39.35848], [2.92891, 39.36421], [2.95817, 39.36244], [2.99017, 39.33787], [2.986, 39.31598], [2.99331, 39.31216], [3.00302, 39.31741], [3.01366, 39.31042], [3.02011, 39.30347], [3.01814, 39.29487], [3.05562, 39.26434], [3.07329, 39.26878], [3.11811, 39.31313], [3.13767, 39.31694], [3.1464, 39.33009], [3.17095, 39.32649], [3.1693, 39.33347], [3.17698, 39.3293], [3.18899, 39.3377], [3.19228, 39.34624], [3.1853, 39.35042], [3.2154, 39.35495], [3.20927, 39.35556], [3.21095, 39.36474], [3.22, 39.35692], [3.23214, 39.36163], [3.23492, 39.36745], [3.22206, 39.37288], [3.23019, 39.36797], [3.23294, 39.37302], [3.23868, 39.37071], [3.23936, 39.37954], [3.24447, 39.37759], [3.25271, 39.39193], [3.24759, 39.39317], [3.25434, 39.39441], [3.25418, 39.40366], [3.26819, 39.4159], [3.25897, 39.41602], [3.26095, 39.42402], [3.26714, 39.42785], [3.27011, 39.41416], [3.2749, 39.41606], [3.27961, 39.46667], [3.28985, 39.47772], [3.28644, 39.48424], [3.29308, 39.4848], [3.29603, 39.49975], [3.31426, 39.5208], [3.34031, 39.53488], [3.33187, 39.54045], [3.34051, 39.53774], [3.35316, 39.54833], [3.36854, 39.55089], [3.37892, 39.57594], [3.40362, 39.57916], [3.38508, 39.59179], [3.39707, 39.62864], [3.40949, 39.63767], [3.4368, 39.63485], [3.4409, 39.65632], [3.45594, 39.65641], [3.45678, 39.67973], [3.45221, 39.68216], [3.45798, 39.68445], [3.45337, 39.6931], [3.45663, 39.70551], [3.46974, 39.71293], [3.47455, 39.70931], [3.47875, 39.71583], [3.47165, 39.72177], [3.45272, 39.72237], [3.46138, 39.74808], [3.43242, 39.74504], [3.42667, 39.75167], [3.41355, 39.75235], [3.40407, 39.76399], [3.37372, 39.76842], [3.34803, 39.78938], [3.33502, 39.78399], [3.33616, 39.77037], [3.32949, 39.76002], [3.25236, 39.72935], [3.2122, 39.74152], [3.1458, 39.77315], [3.12039, 39.80285], [3.11909, 39.82907], [3.13133, 39.84093], [3.1407, 39.83196], [3.18008, 39.84214], [3.19717, 39.86175], [3.18665, 39.8633], [3.18826, 39.88167], [3.20446, 39.88887], [3.19044, 39.89248], [3.18628, 39.88441], [3.14808, 39.86675], [3.13182, 39.86929], [3.10649, 39.85764], [3.08383, 39.87532], [3.08006, 39.90228], [3.08714, 39.90259], [3.08317, 39.9065], [3.09147, 39.91114], [3.10758, 39.90584], [3.11074, 39.89925], [3.10998, 39.91125], [3.12745, 39.91679], [3.1315, 39.9269], [3.15439, 39.92314], [3.18379, 39.93772], [3.18035, 39.9405], [3.20218, 39.94386], [3.21447, 39.9615], [3.17363, 39.95167], [3.17763, 39.96153], [3.14745, 39.95409], [3.12188, 39.93191], [3.09762, 39.92779], [3.10166, 39.93505], [3.096, 39.93582], [3.06058, 39.91942], [3.05478, 39.9219], [3.06106, 39.9325], [3.03745, 39.93027], [3.04194, 39.93769], [3.03345, 39.93022], [3.03448, 39.93448], [3.028, 39.93485], [3.00148, 39.92382], [2.98237, 39.90828], [2.95034, 39.92012], [2.93623, 39.90419], [2.8954, 39.89488], [2.8749, 39.87798], [2.85319, 39.87429], [2.84502, 39.86177], [2.83838, 39.8653], [2.82483, 39.85661], [2.82426, 39.86097], [2.81547, 39.85686], [2.80462, 39.86228], [2.80571, 39.85251], [2.80033, 39.85102], [2.77801, 39.85534], [2.77579, 39.83988], [2.76732, 39.84302], [2.76608, 39.83502], [2.7556, 39.82915], [2.74252, 39.83282], [2.70429, 39.80852], [2.69948, 39.81089], [2.68919, 39.79797], [2.69563, 39.79726], [2.69429, 39.79122], [2.67993, 39.7986], [2.66946, 39.79229], [2.66332, 39.77252], [2.64121, 39.76007], [2.63569, 39.76522], [2.6255, 39.75242], [2.61992, 39.7561], [2.62279, 39.74799], [2.58733, 39.71719], [2.55547, 39.69999], [2.52777, 39.70154], [2.49812, 39.68451], [2.48864, 39.67165], [2.48187, 39.67244], [2.46223, 39.65203], [2.4233, 39.63858], [2.422, 39.62997], [2.39531, 39.61744], [2.36867, 39.61395], [2.34473, 39.58717]]}}, {"type": "Feature", "properties": {"name": "Mallorca to Menorca \u00b7 kayak crossing", "color": "#ffffff", "dashed": 0, "cat": "plan", "label": "<b>Mallorca to Menorca \u00b7 kayak crossing</b>"}, "geometry": {"type": "LineString", "coordinates": [[3.46, 39.71], [3.65, 39.88], [3.84, 40.0]]}}, {"type": "Feature", "properties": {"name": "Around Menorca", "color": "#ffffff", "dashed": 0, "cat": "plan", "label": "<b>Around Menorca</b>"}, "geometry": {"type": "LineString", "coordinates": [[3.79085, 40.01616], [3.79905, 39.99781], [3.80601, 40.00143], [3.8217, 39.99554], [3.83598, 40.00248], [3.82524, 39.99623], [3.83541, 39.9943], [3.82594, 39.98905], [3.83122, 39.97949], [3.83942, 39.97846], [3.83311, 39.97922], [3.82997, 39.97261], [3.83568, 39.96744], [3.82488, 39.95203], [3.82, 39.92817], [3.82405, 39.92186], [3.83405, 39.92915], [3.83929, 39.92236], [3.884, 39.9219], [3.8954, 39.92766], [3.9001, 39.92245], [3.91127, 39.92509], [3.91449, 39.9322], [3.93126, 39.93173], [3.93682, 39.93831], [3.99002, 39.93097], [4.06399, 39.90349], [4.11805, 39.87007], [4.14695, 39.86481], [4.145, 39.86054], [4.16555, 39.84911], [4.16853, 39.85245], [4.18291, 39.83849], [4.2031, 39.83353], [4.20818, 39.82482], [4.21901, 39.82909], [4.2402, 39.81318], [4.24589, 39.81674], [4.26709, 39.80926], [4.28078, 39.81141], [4.29624, 39.82318], [4.29285, 39.82897], [4.30384, 39.83184], [4.29815, 39.84095], [4.30876, 39.84892], [4.30584, 39.86319], [4.29864, 39.86388], [4.30738, 39.86554], [4.29386, 39.88138], [4.27483, 39.88446], [4.27642, 39.89074], [4.26251, 39.89123], [4.25662, 39.89723], [4.29048, 39.8884], [4.29606, 39.89188], [4.29668, 39.88523], [4.31048, 39.87792], [4.31048, 39.86993], [4.32803, 39.87708], [4.30941, 39.87981], [4.30847, 39.89903], [4.29837, 39.89751], [4.29262, 39.91035], [4.28549, 39.91212], [4.29002, 39.91703], [4.28549, 39.92491], [4.27439, 39.9334], [4.2834, 39.94457], [4.27845, 39.94552], [4.28069, 39.94984], [4.26508, 39.95029], [4.27232, 39.95414], [4.27, 39.95958], [4.25467, 39.96382], [4.25909, 39.97889], [4.26617, 39.9819], [4.25936, 39.98152], [4.25492, 39.99284], [4.26954, 39.99674], [4.25018, 40.00148], [4.22058, 39.99658], [4.21992, 40.00212], [4.2092, 40.00303], [4.21284, 40.00661], [4.20735, 40.01309], [4.20857, 40.00719], [4.20045, 40.00578], [4.20539, 39.99313], [4.19762, 40.00692], [4.2022, 40.01376], [4.19366, 40.00971], [4.20301, 40.01865], [4.19318, 40.02369], [4.19526, 40.0323], [4.18731, 40.03328], [4.18215, 40.02187], [4.16895, 40.02682], [4.17107, 40.03636], [4.16067, 40.03365], [4.15842, 40.0448], [4.16638, 40.04431], [4.16441, 40.05781], [4.17278, 40.06056], [4.15499, 40.06796], [4.13663, 40.06703], [4.14293, 40.05547], [4.1388, 40.05405], [4.14087, 40.03602], [4.12612, 40.02575], [4.12014, 40.03574], [4.13371, 40.06288], [4.1264, 40.06257], [4.1251, 40.05505], [4.10981, 40.05446], [4.10311, 40.04473], [4.09927, 40.05801], [4.09284, 40.05978], [4.09644, 40.06919], [4.09249, 40.0748], [4.09924, 40.08461], [4.0928, 40.08933], [4.08161, 40.08908], [4.09031, 40.08235], [4.0894, 40.06897], [4.08427, 40.07501], [4.08237, 40.06791], [4.07572, 40.06695], [4.07625, 40.05948], [4.05746, 40.0584], [4.05313, 40.05177], [4.03214, 40.06555], [4.01626, 40.05556], [3.99436, 40.05904], [3.97884, 40.0509], [3.96228, 40.06076], [3.94175, 40.05633], [3.93394, 40.06291], [3.91986, 40.05699], [3.92437, 40.04999], [3.92112, 40.04544], [3.89853, 40.05979], [3.88196, 40.058], [3.88477, 40.05523], [3.87876, 40.05227], [3.86754, 40.05813], [3.83484, 40.04886], [3.8259, 40.05275], [3.80642, 40.03174], [3.81047, 40.02676], [3.79085, 40.01616]]}}]}